"","FID","site_id","name","lon","lat","ONIMI","OKOOD","MNIMI","MKOOD","lau2","lon_cntr","lat_cntr"
"1",0,346,"LUIGE",24.77665278,59.34361111,"Kiili vald",304,"Harju maakond",37,304,24.849682094,59.2890849055
"2",1,225,"KIIMA",24.84833056,59.31415833,"Kiili vald",304,"Harju maakond",37,304,24.849682094,59.2890849055
"3",2,224,"KIILI",24.83505278,59.30666667,"Kiili vald",304,"Harju maakond",37,304,24.849682094,59.2890849055
"4",3,347,"LUIGQ",24.77277778,59.32528056,"Kiili vald",304,"Harju maakond",37,304,24.849682094,59.2890849055
"5",4,899,"PAEKN",24.83417222,59.26249722,"Kiili vald",304,"Harju maakond",37,304,24.849682094,59.2890849055
"6",5,708,"UHTNA",26.58443889,59.40694167,"Sõmeru vald",770,"Lääne-Viru maakond",59,770,26.4939661328,59.397459309
"7",6,410,"NAPI",26.39778333,59.36778333,"Sõmeru vald",770,"Lääne-Viru maakond",59,770,26.4939661328,59.397459309
"8",7,448,"PAIKQ",24.64472222,58.37638333,"Paikuse vald",568,"Pärnu maakond",67,568,24.7766632096,58.3647089971
"9",8,610,"SMETS",24.66415556,58.35999444,"Paikuse vald",568,"Pärnu maakond",67,568,24.7766632096,58.3647089971
"10",9,966,"PASIL",24.622494,58.346669,"Paikuse vald",568,"Pärnu maakond",67,568,24.7766632096,58.3647089971
"11",10,416,"NEEME",25.16435556,59.52916667,"Jõelähtme vald",245,"Harju maakond",37,245,25.1356324047,59.4477133397
"12",11,946,"HAPSE",25.2925,59.49694444,"Jõelähtme vald",245,"Harju maakond",37,245,25.1356324047,59.4477133397
"13",12,138,"JAGLQ",25.19360556,59.45694167,"Jõelähtme vald",245,"Harju maakond",37,245,25.1356324047,59.4477133397
"14",13,146,"JOELA",25.14500556,59.43971944,"Jõelähtme vald",245,"Harju maakond",37,245,25.1356324047,59.4477133397
"15",14,597,"SAVIR",25.04710556,59.49765833,"Jõelähtme vald",245,"Harju maakond",37,245,25.1356324047,59.4477133397
"16",15,1021,"REBAL",25.06055556,59.45444444,"Jõelähtme vald",245,"Harju maakond",37,245,25.1356324047,59.4477133397
"17",16,267,"KOSTI",25.09638889,59.42916667,"Jõelähtme vald",245,"Harju maakond",37,245,25.1356324047,59.4477133397
"18",17,582,"SAHAL",24.94472222,59.425,"Jõelähtme vald",245,"Harju maakond",37,245,25.1356324047,59.4477133397
"19",18,1048,"LOOVT",24.94886667,59.432025,"Jõelähtme vald",245,"Harju maakond",37,245,25.1356324047,59.4477133397
"20",19,569,"ROOSN",25.72943333,59.01804722,"Roosna-Alliku vald",684,"Järva maakond",51,684,25.7154468055,59.0089999845
"21",20,869,"ORU",24.98166667,59.1925,"Kose vald",337,"Harju maakond",37,337,25.1066440122,59.1935046924
"22",21,266,"KOSE",25.14804444,59.18721667,"Kose vald",337,"Harju maakond",37,337,25.1066440122,59.1935046924
"23",22,1029,"VARDJ",25.20722222,59.17,"Kose vald",337,"Harju maakond",37,337,25.1066440122,59.1935046924
"24",23,5,"AEGVI",25.60415833,59.29027778,"Aegviidu vald",112,"Harju maakond",37,112,25.6202148665,59.2794606822
"25",24,50,"BODIL",25.08176667,59.35921667,"Raasiku vald",651,"Harju maakond",37,651,25.1319450905,59.3242694413
"26",25,522,"RAASI",25.17776667,59.365,"Raasiku vald",651,"Harju maakond",37,651,25.1319450905,59.3242694413
"27",26,817,"AKYLQ",25.04999167,59.36666667,"Raasiku vald",651,"Harju maakond",37,651,25.1319450905,59.3242694413
"28",27,695,"TUDLI",27.07109444,59.03388333,"Tudulinna vald",815,"Ida-Viru maakond",44,815,27.0172481424,59.0767455401
"29",28,604,"SILLQ",27.77313889,59.38944167,"Vaivara vald",851,"Ida-Viru maakond",44,851,27.8827796677,59.331780323
"30",29,60,"EESEJ",27.90785278,59.27314167,"Vaivara vald",851,"Ida-Viru maakond",44,851,27.8827796677,59.331780323
"31",30,780,"VODAV",28.06833056,59.40526944,"Vaivara vald",851,"Ida-Viru maakond",44,851,27.8827796677,59.331780323
"32",31,956,"LAAGN",27.97611111,59.38972222,"Vaivara vald",851,"Ida-Viru maakond",44,851,27.8827796677,59.331780323
"33",32,61,"EESMA",27.87630556,59.26635556,"Vaivara vald",851,"Ida-Viru maakond",44,851,27.8827796677,59.331780323
"34",33,876,"VIIVI",27.65667222,59.33555556,"Vaivara vald",851,"Ida-Viru maakond",44,851,27.8827796677,59.331780323
"35",34,993,"VAIVA",27.87444444,59.37416667,"Vaivara vald",851,"Ida-Viru maakond",44,851,27.8827796677,59.331780323
"36",35,338,"LOKSA",25.73473056,59.585,"Kuusalu vald",353,"Harju maakond",37,353,25.6482832547,59.459399625
"37",36,252,"KOLGA",25.57555556,59.48888889,"Kuusalu vald",353,"Harju maakond",37,353,25.6482832547,59.459399625
"38",37,288,"KUUSA",25.42221667,59.455275,"Kuusalu vald",353,"Harju maakond",37,353,25.6482832547,59.459399625
"39",38,255,"KONNU",25.71194167,59.45971667,"Kuusalu vald",353,"Harju maakond",37,353,25.6482832547,59.459399625
"40",39,464,"PARIS",25.69971389,59.64416667,"Kuusalu vald",353,"Harju maakond",37,353,25.6482832547,59.459399625
"41",40,1,"AABLA",25.52110556,59.58555556,"Kuusalu vald",353,"Harju maakond",37,353,25.6482832547,59.459399625
"42",41,152,"JUMIN",25.50000556,59.64583056,"Kuusalu vald",353,"Harju maakond",37,353,25.6482832547,59.459399625
"43",42,159,"KABER",25.26499167,59.47360833,"Kuusalu vald",353,"Harju maakond",37,353,25.6482832547,59.459399625
"44",43,728,"VALKL",25.355,59.47638056,"Kuusalu vald",353,"Harju maakond",37,353,25.6482832547,59.459399625
"45",44,573,"RUMMU",24.20352222,59.23130556,"Vasalemma vald",868,"Harju maakond",37,868,24.2498057927,59.237986406
"46",45,744,"VASAL",24.28193889,59.23444167,"Vasalemma vald",868,"Harju maakond",37,868,24.2498057927,59.237986406
"47",46,443,"PADIS",24.08635278,59.21621667,"Padise vald",562,"Harju maakond",37,562,23.9818282041,59.2195253675
"48",47,123,"HRIST",24.00639167,59.22750278,"Padise vald",562,"Harju maakond",37,562,23.9818282041,59.2195253675
"49",48,208,"KEIBU",23.77304444,59.25833056,"Padise vald",562,"Harju maakond",37,562,23.9818282041,59.2195253675
"50",49,1033,"VIHTM",23.87611111,59.25333333,"Padise vald",562,"Harju maakond",37,562,23.9818282041,59.2195253675
"51",50,276,"KUKRU",27.32888056,59.38638333,"Kohtla vald",320,"Ida-Viru maakond",44,320,27.288243553,59.3960912082
"52",51,43,"AVINU",26.87694722,58.98776667,"Avinurme vald",164,"Ida-Viru maakond",44,164,26.8605054217,58.9742809276
"53",52,844,"ADRAK",26.80361667,58.90472222,"Avinurme vald",164,"Ida-Viru maakond",44,164,26.8605054217,58.9742809276
"54",53,241,"KNOMM",27.19667778,59.34808056,"Kohtla-Nõmme vald",323,"Ida-Viru maakond",44,323,27.1931523173,59.3569514971
"55",54,675,"TOILA",27.52943889,59.41472222,"Toila vald",802,"Ida-Viru maakond",44,802,27.5895753196,59.3648185396
"56",55,873,"TOISA",27.51361389,59.42528056,"Toila vald",802,"Ida-Viru maakond",44,802,27.5895753196,59.3648185396
"57",56,357,"MAIDL",27.02058333,59.33536667,"Maidla vald",449,"Ida-Viru maakond",44,449,27.0281673696,59.2539384924
"58",57,35,"ASERI",26.84988056,59.45638889,"Aseri vald",154,"Ida-Viru maakond",44,154,26.8520754649,59.4347942165
"59",58,85,"ESTON",27.39220278,59.20101389,"Mäetaguse vald",498,"Ida-Viru maakond",44,498,27.2644056784,59.2260396755
"60",59,355,"MAETA",27.29387778,59.22805556,"Mäetaguse vald",498,"Ida-Viru maakond",44,498,27.2644056784,59.2260396755
"61",60,19,"ALJOE",27.43581944,59.01360833,"Alajõe vald",122,"Ida-Viru maakond",44,122,27.5107612034,59.0269199704
"62",61,938,"AAMAS",27.15611111,59.43527778,"Lüganuse vald",437,"Ida-Viru maakond",44,437,27.0835259224,59.4002894147
"63",62,514,"PURTS",27.01766667,59.41758056,"Lüganuse vald",437,"Ida-Viru maakond",44,437,27.0835259224,59.4002894147
"64",63,33,"ARKMA",25.56871667,58.66516667,"Türi vald",835,"Järva maakond",51,835,25.4385840297,58.7374146658
"65",64,232,"KIRNA",25.47389167,58.84944167,"Türi vald",835,"Järva maakond",51,835,25.4385840297,58.7374146658
"66",65,427,"OISU",25.57026667,58.75833056,"Türi vald",835,"Järva maakond",51,835,25.4385840297,58.7374146658
"67",66,705,"TYREE",25.42970556,58.81904444,"Türi vald",835,"Järva maakond",51,835,25.4385840297,58.7374146658
"68",67,706,"TYRI",25.42954444,58.79328056,"Türi vald",835,"Järva maakond",51,835,25.4385840297,58.7374146658
"69",68,919,"TYTEH",25.40777778,58.8175,"Türi vald",835,"Järva maakond",51,835,25.4385840297,58.7374146658
"70",69,1050,"KOLUM",25.255,58.79861111,"Türi vald",835,"Järva maakond",51,835,25.4385840297,58.7374146658
"71",70,200,"KAUKS",27.23027222,59.00389167,"Iisaku vald",224,"Ida-Viru maakond",44,224,27.3310010544,59.0871125213
"72",71,130,"IISAK",27.31333056,59.09305556,"Iisaku vald",224,"Ida-Viru maakond",44,224,27.3310010544,59.0871125213
"73",72,336,"LOHSU",27.04815833,58.94621667,"Lohusuu vald",420,"Ida-Viru maakond",44,420,26.9992847532,58.9461145791
"74",73,476,"PERMI",27.77609722,59.08582778,"Illuka vald",229,"Ida-Viru maakond",44,229,27.6299614086,59.1681013766
"75",74,282,"KUREM",27.54444167,59.19305278,"Illuka vald",229,"Ida-Viru maakond",44,229,27.6299614086,59.1681013766
"76",75,886,"ILLUQ",27.51305278,59.23943889,"Illuka vald",229,"Ida-Viru maakond",44,229,27.6299614086,59.1681013766
"77",76,248,"KOIGI",25.74635278,58.82923056,"Koigi vald",325,"Järva maakond",51,325,25.8414711383,58.8364904057
"78",77,277,"KULEE",24.08804444,58.88583056,"Kullamaa vald",342,"Lääne maakond",57,342,24.0437289775,58.850647552
"79",78,278,"KULLA",24.04360833,58.84139167,"Kullamaa vald",342,"Lääne maakond",57,342,24.0437289775,58.850647552
"80",79,454,"PALIV",23.83500278,58.96971667,"Taebla vald",776,"Lääne maakond",57,776,23.8305205297,58.9669118502
"81",80,452,"PALAS",23.88166667,58.96776944,"Taebla vald",776,"Lääne maakond",57,776,23.8305205297,58.9669118502
"82",81,637,"TAEBL",23.74055833,58.95471944,"Taebla vald",776,"Lääne maakond",57,776,23.8305205297,58.9669118502
"83",82,303,"LAIKY",23.99624444,58.76435556,"Martna vald",452,"Lääne maakond",57,452,23.8620089912,58.8420381155
"84",83,368,"MARTN",23.77973056,58.83083333,"Martna vald",452,"Lääne maakond",57,452,23.8620089912,58.8420381155
"85",84,564,"ROKYL",23.43249167,58.91555556,"Ridala vald",674,"Lääne maakond",57,674,23.5860176956,58.8671861188
"86",85,606,"SINAL",23.57582778,58.83250278,"Ridala vald",674,"Lääne maakond",57,674,23.5860176956,58.8671861188
"87",86,714,"UUEM",23.59111389,58.94471944,"Ridala vald",674,"Lääne maakond",57,674,23.5860176956,58.8671861188
"88",87,965,"PARRL",23.62055556,58.86444444,"Ridala vald",674,"Lääne maakond",57,674,23.5860176956,58.8671861188
"89",88,323,"LIHUL",23.81944167,58.67638333,"Lihula vald",411,"Lääne maakond",57,411,23.8511700439,58.6906501727
"90",89,787,"VORMS",23.23527778,58.99556389,"Vormsi vald",907,"Lääne maakond",57,907,23.2443374601,59.0036951804
"91",90,254,"KOMSI",23.62861389,58.62416389,"Hanila vald",195,"Lääne maakond",57,195,23.654080239,58.6087927103
"92",91,491,"PIVAR",23.61630833,58.54385833,"Hanila vald",195,"Lääne maakond",57,195,23.654080239,58.6087927103
"93",92,586,"SALEV",23.57833333,58.68971944,"Hanila vald",195,"Lääne maakond",57,195,23.654080239,58.6087927103
"94",93,772,"VIRTS",23.525,58.57416389,"Hanila vald",195,"Lääne maakond",57,195,23.654080239,58.6087927103
"95",94,846,"JMAAG",27.43277778,59.36444167,"Jõhvi vald",251,"Ida-Viru maakond",44,251,27.4083585251,59.3424391632
"96",95,149,"JOHKE",27.41439167,59.35791667,"Jõhvi vald",251,"Ida-Viru maakond",44,251,27.4083585251,59.3424391632
"97",96,150,"JOHVI",27.41305,59.35221111,"Jõhvi vald",251,"Ida-Viru maakond",44,251,27.4083585251,59.3424391632
"98",97,888,"JOHKL",27.41028611,59.36333056,"Jõhvi vald",251,"Ida-Viru maakond",44,251,27.4083585251,59.3424391632
"99",98,1039,"JOHEE",27.39035556,59.35712778,"Jõhvi vald",251,"Ida-Viru maakond",44,251,27.4083585251,59.3424391632
"100",99,398,"MURST",24.42920833,59.45702222,"Harku vald",198,"Harju maakond",37,198,24.4423527201,59.4035370046
"101",100,210,"KEILA",24.45637778,59.31138889,"Harku vald",198,"Harju maakond",37,198,24.4423527201,59.4035370046
"102",101,393,"MPIIR",24.46194167,59.46721944,"Harku vald",198,"Harju maakond",37,198,24.4423527201,59.4035370046
"103",102,628,"SUURU",24.37527222,59.46194444,"Harku vald",198,"Harju maakond",37,198,24.4423527201,59.4035370046
"104",103,775,"VJOES",24.37249167,59.43333056,"Harku vald",198,"Harju maakond",37,198,24.4423527201,59.4035370046
"105",104,1001,"KJSIK",24.29972222,59.40722222,"Harku vald",198,"Harju maakond",37,198,24.4423527201,59.4035370046
"106",105,52,"CERES",24.59569444,59.41427778,"Harku vald",198,"Harju maakond",37,198,24.4423527201,59.4035370046
"107",106,635,"TABAS",24.54916667,59.42833056,"Harku vald",198,"Harju maakond",37,198,24.4423527201,59.4035370046
"108",107,887,"INSTI",24.5775,59.38778056,"Harku vald",198,"Harju maakond",37,198,24.4423527201,59.4035370046
"109",108,895,"LIIKV",24.41334167,59.42916111,"Harku vald",198,"Harju maakond",37,198,24.4423527201,59.4035370046
"110",109,337,"LOHUS",24.23526667,59.3825,"Keila vald",295,"Harju maakond",37,295,24.291986319,59.3161718668
"111",110,954,"KLOGA",24.23027778,59.31861111,"Keila vald",295,"Harju maakond",37,295,24.291986319,59.3161718668
"112",111,237,"KJORL",24.27569444,59.39740833,"Keila vald",295,"Harju maakond",37,295,24.291986319,59.3161718668
"113",112,239,"KLOOG",24.25716667,59.32078056,"Keila vald",295,"Harju maakond",37,295,24.291986319,59.3161718668
"114",113,309,"LAULA",24.30526667,59.37194167,"Keila vald",295,"Harju maakond",37,295,24.291986319,59.3161718668
"115",114,312,"LEHOL",24.32804722,59.28972222,"Keila vald",295,"Harju maakond",37,295,24.291986319,59.3161718668
"116",115,890,"KKYLA",24.3925,59.34055556,"Keila vald",295,"Harju maakond",37,295,24.291986319,59.3161718668
"117",116,451,"PALAD",22.91284444,58.96478333,"Pühalepa vald",639,"Hiiu maakond",39,639,22.8610846969,58.921633515
"118",117,627,"SUURE",22.94001944,58.87093889,"Pühalepa vald",639,"Hiiu maakond",39,639,22.8610846969,58.921633515
"119",118,947,"HELTE",23.04722222,58.86666667,"Pühalepa vald",639,"Hiiu maakond",39,639,22.8610846969,58.921633515
"120",119,640,"TALI",24.77388056,58.06999167,"Saarde vald",710,"Pärnu maakond",67,710,24.9531904485,58.1477549275
"121",120,228,"KILNO",24.94861389,58.14888056,"Saarde vald",710,"Pärnu maakond",67,710,24.9531904485,58.1477549275
"122",121,229,"KILNQ",24.99944444,58.15666944,"Saarde vald",710,"Pärnu maakond",67,710,24.9531904485,58.1477549275
"123",122,175,"KANAK",25.13159444,58.25042222,"Saarde vald",710,"Pärnu maakond",67,710,24.9531904485,58.1477549275
"124",123,560,"ROELA",26.61166667,59.16582222,"Vinni vald",900,"Lääne-Viru maakond",59,900,26.6047305328,59.2134172305
"125",124,768,"VINNI",26.41930278,59.30473056,"Vinni vald",900,"Lääne-Viru maakond",59,900,26.6047305328,59.2134172305
"126",125,774,"VJAAG",26.47554722,59.24999444,"Vinni vald",900,"Lääne-Viru maakond",59,900,26.6047305328,59.2134172305
"127",126,1015,"PJUST",26.41472222,59.28111111,"Vinni vald",900,"Lääne-Viru maakond",59,900,26.6047305328,59.2134172305
"128",127,696,"TUDU",26.83334167,59.18638889,"Vinni vald",900,"Lääne-Viru maakond",59,900,26.6047305328,59.2134172305
"129",128,904,"PIIRA",26.37499167,59.32305556,"Vinni vald",900,"Lääne-Viru maakond",59,900,26.6047305328,59.2134172305
"130",129,549,"RIKYL",24.74223056,58.19278056,"Surju vald",756,"Pärnu maakond",67,756,24.7795654515,58.2486462093
"131",130,843,"KARED",25.79308333,58.97265556,"Kareda vald",288,"Järva maakond",51,288,25.818779186,58.9413773729
"132",131,294,"KYLIT",26.57075556,58.29570278,"Nõo vald",528,"Tartu maakond",78,528,26.5121225868,58.2521525734
"133",132,421,"NOO",26.52887222,58.27305556,"Nõo vald",528,"Tartu maakond",78,528,26.5121225868,58.2521525734
"134",133,874,"TORAV",26.46471944,58.26583056,"Nõo vald",528,"Tartu maakond",78,528,26.5121225868,58.2521525734
"135",134,566,"RONGU",26.26193056,58.13776944,"Rõngu vald",694,"Tartu maakond",78,694,26.2417326096,58.1674141664
"136",135,145,"JJAAN",25.89444167,59.04026667,"Järva-Jaani vald",257,"Järva maakond",51,257,25.9100108653,59.0460072595
"137",136,595,"SAUKO",24.50855556,58.43130833,"Sauga vald",730,"Pärnu maakond",67,730,24.5652136738,58.447373832
"138",137,1006,"KILKS",24.61583333,58.45138889,"Sauga vald",730,"Pärnu maakond",67,730,24.5652136738,58.447373832
"139",138,203,"KDRIN",26.14027222,59.34860556,"Kadrina vald",272,"Lääne-Viru maakond",59,272,26.0480668662,59.3711160051
"140",139,163,"KADMA",26.09889167,59.37638333,"Kadrina vald",272,"Lääne-Viru maakond",59,272,26.0480668662,59.3711160051
"141",140,759,"VIITN",25.99110833,59.45916944,"Kadrina vald",272,"Lääne-Viru maakond",59,272,26.0480668662,59.3711160051
"142",141,832,"HULJA",26.21138056,59.355,"Kadrina vald",272,"Lääne-Viru maakond",59,272,26.0480668662,59.3711160051
"143",142,39,"ASTE",22.46056667,58.33444167,"Kaarma vald",270,"Saare maakond",74,270,22.4795597872,58.3319825545
"144",143,64,"EIKLA",22.51749444,58.42472222,"Kaarma vald",270,"Saare maakond",74,270,22.4795597872,58.3319825545
"145",144,415,"NASVA",22.37276944,58.22360833,"Kaarma vald",270,"Saare maakond",74,270,22.4795597872,58.3319825545
"146",145,1035,"MRATS",22.56416667,58.24,"Kaarma vald",270,"Saare maakond",74,270,22.4795597872,58.3319825545
"147",146,605,"SIMUN",26.39138889,59.04526944,"Väike-Maarja vald",926,"Lääne-Viru maakond",59,926,26.3256795348,59.0731374093
"148",147,56,"EBAVE",26.25609722,59.09693889,"Väike-Maarja vald",926,"Lääne-Viru maakond",59,926,26.3256795348,59.0731374093
"149",148,778,"VMAAR",26.23860833,59.12443889,"Väike-Maarja vald",926,"Lääne-Viru maakond",59,926,26.3256795348,59.0731374093
"150",149,184,"KARIL",26.93278889,58.15776944,"Vastse-Kuuste vald",872,"Põlva maakond",65,872,26.9558111159,58.1699521452
"151",150,223,"KIIDJ",27.02110556,58.12333056,"Vastse-Kuuste vald",872,"Põlva maakond",65,872,26.9558111159,58.1699521452
"152",151,317,"LENJU",24.82679444,59.40991389,"Rae vald",653,"Harju maakond",37,653,24.9518409711,59.3338931726
"153",152,601,"SHENK",24.81721667,59.40693889,"Rae vald",653,"Harju maakond",37,653,24.9518409711,59.3338931726
"154",153,34,"ARVAL",25.01896944,59.24969444,"Rae vald",653,"Harju maakond",37,653,24.9518409711,59.3338931726
"155",154,722,"VAIDA",24.97500278,59.27971389,"Rae vald",653,"Harju maakond",37,653,24.9518409711,59.3338931726
"156",155,472,"PATIQ",24.92471667,59.31471944,"Rae vald",653,"Harju maakond",37,653,24.9518409711,59.3338931726
"157",156,864,"LAIKE",24.82250278,59.39971667,"Rae vald",653,"Harju maakond",37,653,24.9518409711,59.3338931726
"158",157,974,"RETIT",24.82833333,59.38611111,"Rae vald",653,"Harju maakond",37,653,24.9518409711,59.3338931726
"159",158,340,"LOOPE",24.85678889,59.39315833,"Rae vald",653,"Harju maakond",37,653,24.9518409711,59.3338931726
"160",159,889,"JYFCC",24.89694167,59.34832778,"Rae vald",653,"Harju maakond",37,653,24.9518409711,59.3338931726
"161",160,863,"KULDA",24.80471389,59.40388333,"Rae vald",653,"Harju maakond",37,653,24.9518409711,59.3338931726
"162",161,37,"ASSKU",24.82522222,59.3725,"Rae vald",653,"Harju maakond",37,653,24.9518409711,59.3338931726
"163",162,719,"VAGEV",24.80371111,59.39417778,"Rae vald",653,"Harju maakond",37,653,24.9518409711,59.3338931726
"164",163,156,"JYRI",24.89944167,59.36193889,"Rae vald",653,"Harju maakond",37,653,24.9518409711,59.3338931726
"165",164,157,"JYRKA",24.91973889,59.35750556,"Rae vald",653,"Harju maakond",37,653,24.9518409711,59.3338931726
"166",165,300,"LAGED",24.91943333,59.40444167,"Rae vald",653,"Harju maakond",37,653,24.9518409711,59.3338931726
"167",166,979,"SLEEP",24.88194444,59.36777778,"Rae vald",653,"Harju maakond",37,653,24.9518409711,59.3338931726
"168",167,1022,"VAADI",24.93972222,59.37361111,"Rae vald",653,"Harju maakond",37,653,24.9518409711,59.3338931726
"169",168,450,"PALA",27.01083056,58.69639167,"Pala vald",576,"Jõgeva maakond",49,576,27.0129969993,58.6909099391
"170",169,481,"PIIBU",27.04860556,58.74833056,"Pala vald",576,"Jõgeva maakond",49,576,27.0129969993,58.6909099391
"171",170,717,"VAATS",25.45027778,58.88388889,"Väätsa vald",937,"Järva maakond",51,937,25.3964741433,58.9289877503
"172",171,244,"KOERU",26.05638056,58.97472222,"Koeru vald",314,"Järva maakond",51,314,26.0275605435,58.9299699965
"173",172,134,"IMAVE",25.75778889,58.74777778,"Imavere vald",234,"Järva maakond",51,234,25.7501896391,58.7569723628
"174",173,841,"AVERE",25.9075,58.71194444,"Põltsamaa vald",616,"Jõgeva maakond",49,616,26.0095928999,58.6444906043
"175",174,348,"LUSTI",26.09499444,58.66305278,"Põltsamaa vald",616,"Jõgeva maakond",49,616,26.0095928999,58.6444906043
"176",175,1051,"KAMAR",25.99707222,58.59725278,"Põltsamaa vald",616,"Jõgeva maakond",49,616,26.0095928999,58.6444906043
"177",176,178,"KANTK",26.64209444,58.81951667,"Torma vald",810,"Jõgeva maakond",49,810,26.6729265486,58.8654364688
"178",177,990,"TORMQ",26.72694444,58.82361111,"Torma vald",810,"Jõgeva maakond",49,810,26.6729265486,58.8654364688
"179",178,1036,"SADAL",26.60805556,58.85666667,"Torma vald",810,"Jõgeva maakond",49,810,26.6729265486,58.8654364688
"180",179,354,"MAEKU",25.75558056,58.89574167,"Paide vald",565,"Järva maakond",51,565,25.5742738611,58.9563418757
"181",180,24,"ANNA",25.55000556,59.03333056,"Paide vald",565,"Järva maakond",51,565,25.5742738611,58.9563418757
"182",181,363,"MAO",25.61388333,58.91083056,"Paide vald",565,"Järva maakond",51,565,25.5742738611,58.9563418757
"183",182,770,"VIRAK",25.52500556,58.91361389,"Paide vald",565,"Järva maakond",51,565,25.5742738611,58.9563418757
"184",183,906,"PURDI",25.60597222,58.97459167,"Paide vald",565,"Järva maakond",51,565,25.5742738611,58.9563418757
"185",184,636,"TABIV",26.59305278,58.55138056,"Tabivere vald",773,"Jõgeva maakond",49,773,26.6450420263,58.5820163316
"186",185,352,"MAAJA",26.76334444,58.61749722,"Tabivere vald",773,"Jõgeva maakond",49,773,26.6450420263,58.5820163316
"187",186,975,"SAARM",26.81555556,58.72361111,"Saare vald",713,"Jõgeva maakond",49,713,26.8189077515,58.7212613235
"188",187,396,"MULLA",26.59472778,58.60721944,"Palamuse vald",578,"Jõgeva maakond",49,578,26.5802040503,58.6610106034
"189",188,456,"PALMU",26.60582778,58.69360556,"Palamuse vald",578,"Jõgeva maakond",49,578,26.5802040503,58.6610106034
"190",189,581,"SADUK",26.29221944,58.67888333,"Puurmani vald",611,"Jõgeva maakond",49,611,26.2738059787,58.5865757379
"191",190,517,"PUURQ",26.28444167,58.57499444,"Puurmani vald",611,"Jõgeva maakond",49,611,26.2738059787,58.5865757379
"192",191,264,"KORKY",26.01777778,58.78721389,"Pajusi vald",573,"Jõgeva maakond",49,573,26.0942441503,58.760521476
"193",192,1038,"VAGAR",26.21472222,58.73166667,"Pajusi vald",573,"Jõgeva maakond",49,573,26.0942441503,58.760521476
"194",193,955,"KURMA",26.53833333,58.73722222,"Jõgeva vald",248,"Jõgeva maakond",49,248,26.3858342363,58.7944971011
"195",194,306,"LAIUS",26.49665833,58.78333333,"Jõgeva vald",248,"Jõgeva maakond",49,248,26.3858342363,58.7944971011
"196",195,147,"JOGEV",26.36194444,58.73833333,"Jõgeva vald",248,"Jõgeva maakond",49,248,26.3858342363,58.7944971011
"197",196,215,"KERDE",26.29264167,58.84896667,"Jõgeva vald",248,"Jõgeva maakond",49,248,26.3858342363,58.7944971011
"198",197,711,"ULVI",26.60860556,59.32305556,"Rägavere vald",702,"Lääne-Viru maakond",59,702,26.6471912895,59.3116380834
"199",198,322,"LIBA",24.46916667,58.65749167,"Halinga vald",188,"Pärnu maakond",67,188,24.4808297484,58.6210534846
"200",199,1002,"VAHEN",24.36777778,58.625,"Halinga vald",188,"Pärnu maakond",67,188,24.4808297484,58.6210534846
"201",200,105,"HALIQ",24.51471667,58.60194167,"Halinga vald",188,"Pärnu maakond",67,188,24.4808297484,58.6210534846
"202",201,438,"PAARD",24.41278056,58.76861389,"Vigala vald",884,"Rapla maakond",70,884,24.2996619838,58.7367440673
"203",202,793,"VVIGA",24.26304722,58.75082222,"Vigala vald",884,"Rapla maakond",70,884,24.2996619838,58.7367440673
"204",203,921,"VIGAQ",24.39526944,58.70611111,"Vigala vald",884,"Rapla maakond",70,884,24.2996619838,58.7367440673
"205",204,553,"RITSU",25.84596667,58.03417778,"Helme vald",203,"Valga maakond",82,203,25.8072478261,57.9848197155
"206",205,687,"TORVA",25.93639444,57.99249167,"Helme vald",203,"Valga maakond",82,203,25.8072478261,57.9848197155
"207",206,634,"TAAGE",25.70506667,58.00733333,"Helme vald",203,"Valga maakond",82,203,25.8072478261,57.9848197155
"208",207,165,"KAINA",22.77583333,58.83055556,"Käina vald",368,"Hiiu maakond",39,368,22.7229949782,58.836709045
"209",208,2,"AADMA",22.65482778,58.80254722,"Käina vald",368,"Hiiu maakond",39,368,22.7229949782,58.836709045
"210",209,192,"KASSA",22.83027778,58.78749167,"Käina vald",368,"Hiiu maakond",39,368,22.7229949782,58.836709045
"211",210,547,"RIISI",24.32193889,59.12471944,"Nissi vald",518,"Harju maakond",37,518,24.2382004188,59.1080023858
"212",211,700,"TURBA",24.19810556,59.06888889,"Nissi vald",518,"Harju maakond",37,518,24.2382004188,59.1080023858
"213",212,918,"TUREE",24.24166389,59.07749722,"Nissi vald",518,"Harju maakond",37,518,24.2382004188,59.1080023858
"214",213,431,"ONGU",22.46455556,58.84656667,"Emmaste vald",175,"Hiiu maakond",39,175,22.5591335357,58.7747159399
"215",214,71,"EMMAS",22.56666389,58.71971389,"Emmaste vald",175,"Hiiu maakond",39,175,22.5591335357,58.7747159399
"216",215,1000,"EMMAA",22.59888889,58.70416667,"Emmaste vald",175,"Hiiu maakond",39,175,22.5591335357,58.7747159399
"217",216,170,"KALAN",22.10861389,58.921675,"Kõrgessaare vald",392,"Hiiu maakond",39,392,22.4813018675,58.9479318366
"218",217,219,"KIDAS",22.61999167,59.00860556,"Kõrgessaare vald",392,"Hiiu maakond",39,392,22.4813018675,58.9479318366
"219",218,262,"KOPU",22.19805556,58.91860833,"Kõrgessaare vald",392,"Hiiu maakond",39,392,22.4813018675,58.9479318366
"220",219,263,"KORGE",22.49471944,58.97583056,"Kõrgessaare vald",392,"Hiiu maakond",39,392,22.4813018675,58.9479318366
"221",220,345,"LUIDJ",22.39555556,58.92054444,"Kõrgessaare vald",392,"Hiiu maakond",39,392,22.4813018675,58.9479318366
"222",221,295,"LAAGR",24.60833056,59.34916667,"Saue vald",727,"Harju maakond",37,727,24.5322818364,59.286018621
"223",222,648,"TAMRO",24.62443889,59.34583056,"Saue vald",727,"Harju maakond",37,727,24.5322818364,59.286018621
"224",223,3,"AASMA",24.48944444,59.24138889,"Saue vald",727,"Harju maakond",37,727,24.5322818364,59.286018621
"225",224,222,"KIIA",24.49055556,59.36244167,"Saue vald",727,"Harju maakond",37,727,24.5322818364,59.286018621
"226",225,833,"HYYRU",24.55749167,59.38360833,"Saue vald",727,"Harju maakond",37,727,24.5322818364,59.286018621
"227",226,1047,"BELEM",24.54194444,59.40666667,"Saue vald",727,"Harju maakond",37,727,24.5322818364,59.286018621
"228",227,884,"DSV",24.62056389,59.33944167,"Saku vald",718,"Harju maakond",37,718,24.6988650156,59.2833292757
"229",228,360,"MANKY",24.69150278,59.33668889,"Saku vald",718,"Harju maakond",37,718,24.6988650156,59.2833292757
"230",229,923,"YKSNU",24.61555,59.28444444,"Saku vald",718,"Harju maakond",37,718,24.6988650156,59.2833292757
"231",230,950,"JOGIS",24.53833333,59.28416667,"Saku vald",718,"Harju maakond",37,718,24.6988650156,59.2833292757
"232",231,378,"METSA",24.66764167,59.26639444,"Saku vald",718,"Harju maakond",37,718,24.6988650156,59.2833292757
"233",232,585,"SAKU",24.66805278,59.30110833,"Saku vald",718,"Harju maakond",37,718,24.6988650156,59.2833292757
"234",233,855,"KASUL",24.68583056,59.23860833,"Saku vald",718,"Harju maakond",37,718,24.6988650156,59.2833292757
"235",234,989,"TODVA",24.739479,59.282377,"Saku vald",718,"Harju maakond",37,718,24.6988650156,59.2833292757
"236",235,205,"KEHRA",25.3236,59.33555556,"Anija vald",140,"Harju maakond",37,140,25.4558104801,59.3107524694
"237",236,616,"SOODL",25.42670278,59.37182222,"Anija vald",140,"Harju maakond",37,140,25.4558104801,59.3107524694
"238",237,485,"PILLA",25.57097778,59.35984167,"Anija vald",140,"Harju maakond",37,140,25.4558104801,59.3107524694
"239",238,17,"ALAVE",25.33424722,59.25387778,"Anija vald",140,"Harju maakond",37,140,25.4558104801,59.3107524694
"240",239,741,"VARST",26.66723056,57.64305833,"Varstu vald",865,"Võru maakond",86,865,26.72668232,57.6451564545
"241",240,218,"KERNU",24.49971389,59.13693889,"Kernu vald",297,"Harju maakond",37,297,24.4314044575,59.1689992627
"242",241,305,"LAITS",24.37583056,59.19389167,"Kernu vald",297,"Harju maakond",37,297,24.4314044575,59.1689992627
"243",242,419,"NOARO",23.48110833,59.02943889,"Noarootsi vald",520,"Lääne maakond",57,520,23.5817434761,59.0971187124
"244",243,698,"TUKSI",23.53166667,59.16833056,"Noarootsi vald",520,"Lääne maakond",57,520,23.5817434761,59.0971187124
"245",244,982,"SUTLE",23.59777778,59.06111111,"Noarootsi vald",520,"Lääne maakond",57,520,23.5817434761,59.0971187124
"246",245,750,"VERGI",26.09999444,59.60055556,"Vihula vald",887,"Lääne-Viru maakond",59,887,26.0851333592,59.5393460708
"247",246,792,"VOSU",25.98138333,59.57944167,"Vihula vald",887,"Lääne-Viru maakond",59,887,26.0851333592,59.5393460708
"248",247,65,"EISMA",26.28555556,59.55888889,"Vihula vald",887,"Lääne-Viru maakond",59,887,26.0851333592,59.5393460708
"249",248,181,"KAREP",26.36736667,59.54013056,"Vihula vald",887,"Lääne-Viru maakond",59,887,26.0851333592,59.5393460708
"250",249,754,"VIHUQ",26.12945556,59.54683056,"Vihula vald",887,"Lääne-Viru maakond",59,887,26.0851333592,59.5393460708
"251",250,852,"ESSU",26.36973056,59.42416389,"Haljala vald",190,"Lääne-Viru maakond",59,190,26.2476508743,59.4492624683
"252",251,106,"HALJA",26.22888333,59.45555278,"Haljala vald",190,"Lääne-Viru maakond",59,190,26.2476508743,59.4492624683
"253",252,107,"HALSO",26.27055556,59.42805556,"Haljala vald",190,"Lääne-Viru maakond",59,190,26.2476508743,59.4492624683
"254",253,1025,"AASPE",26.1325,59.44138889,"Haljala vald",190,"Lääne-Viru maakond",59,190,26.2476508743,59.4492624683
"255",254,651,"TAPA",25.98776667,59.25971944,"Tapa vald",790,"Lääne-Viru maakond",59,790,25.8669577976,59.2416944868
"256",255,652,"TAPAK",25.96499444,59.26110556,"Tapa vald",790,"Lääne-Viru maakond",59,790,25.8669577976,59.2416944868
"257",256,985,"TAPKV",25.95333333,59.245,"Tapa vald",790,"Lääne-Viru maakond",59,790,25.8669577976,59.2416944868
"258",257,313,"LEHTM",25.64166389,59.22777222,"Tapa vald",790,"Lääne-Viru maakond",59,790,25.8669577976,59.2416944868
"259",258,314,"LEHTS",25.82774444,59.24911389,"Tapa vald",790,"Lääne-Viru maakond",59,790,25.8669577976,59.2416944868
"260",259,1014,"JMOIS",25.68277778,59.24388889,"Tapa vald",790,"Lääne-Viru maakond",59,790,25.8669577976,59.2416944868
"261",260,530,"RAKEQ",26.26055556,58.97472222,"Rakke vald",660,"Lääne-Viru maakond",59,660,26.2695204553,58.9595199933
"262",261,74,"EMU",26.37055833,58.94471667,"Rakke vald",660,"Lääne-Viru maakond",59,660,26.2695204553,58.9595199933
"263",262,190,"KARU",23.89361667,58.54721667,"Varbla vald",863,"Pärnu maakond",67,863,23.8129851148,58.4584799599
"264",263,735,"VARBL",23.72055278,58.44277222,"Varbla vald",863,"Pärnu maakond",67,863,23.8129851148,58.4584799599
"265",264,1028,"PARLS",23.74472222,58.37388889,"Varbla vald",863,"Pärnu maakond",67,863,23.8129851148,58.4584799599
"266",265,298,"LAEKV",26.51999722,59.07610833,"Laekvere vald",381,"Lääne-Viru maakond",59,381,26.6399720375,59.0570335364
"267",266,997,"VENEV",26.70611111,59.00944444,"Laekvere vald",381,"Lääne-Viru maakond",59,381,26.6399720375,59.0570335364
"268",267,185,"KARIT",26.30890556,59.28963333,"Rakvere vald",662,"Lääne-Viru maakond",59,662,26.2850498494,59.3222456117
"269",268,320,"LEPNA",26.31625278,59.33546667,"Rakvere vald",662,"Lääne-Viru maakond",59,662,26.2850498494,59.3222456117
"270",269,973,"RARAK",26.33833333,59.36555556,"Rakvere vald",662,"Lääne-Viru maakond",59,662,26.2850498494,59.3222456117
"271",270,1045,"LEPNR",26.29055556,59.33194444,"Rakvere vald",662,"Lääne-Viru maakond",59,662,26.2850498494,59.3222456117
"272",271,7,"AHAST",24.1218,58.50170833,"Audru vald",159,"Pärnu maakond",67,159,24.2251855422,58.4255615021
"273",272,41,"AUDRU",24.31027222,58.41639167,"Audru vald",159,"Pärnu maakond",67,159,24.2251855422,58.4255615021
"274",273,951,"JOOPR",24.32333333,58.47277778,"Audru vald",159,"Pärnu maakond",67,159,24.2251855422,58.4255615021
"275",274,40,"AUDKO",24.35555556,58.41028056,"Audru vald",159,"Pärnu maakond",67,159,24.2251855422,58.4255615021
"276",275,825,"ULLAS",24.43886667,58.42438889,"Audru vald",159,"Pärnu maakond",67,159,24.2251855422,58.4255615021
"277",276,1004,"MMETS",24.41333333,58.39583333,"Audru vald",159,"Pärnu maakond",67,159,24.2251855422,58.4255615021
"278",277,161,"KABRI",24.24776667,58.32666667,"Audru vald",159,"Pärnu maakond",67,159,24.2251855422,58.4255615021
"279",278,682,"TOOTS",24.78744167,58.5865,"Tootsi vald",805,"Pärnu maakond",67,805,24.7926002257,58.5776377062
"280",279,310,"LAVAS",24.37448333,58.51358333,"Lavassaare vald",395,"Pärnu maakond",67,395,24.3760303701,58.5067420213
"281",280,101,"HAADE",24.50887222,58.08055556,"Häädemeeste vald",213,"Pärnu maakond",67,213,24.5528002505,58.0345310154
"282",281,131,"IKLA",24.38277222,57.87666667,"Häädemeeste vald",213,"Pärnu maakond",67,213,24.5528002505,58.0345310154
"283",282,160,"KABLI",24.44613056,57.99744167,"Häädemeeste vald",213,"Pärnu maakond",67,213,24.5528002505,58.0345310154
"284",283,991,"TREIM",24.385,57.91916667,"Häädemeeste vald",213,"Pärnu maakond",67,213,24.5528002505,58.0345310154
"285",284,21,"AMBLA",25.84333333,59.19166389,"Ambla vald",134,"Järva maakond",51,134,25.8359720061,59.1616941601
"286",285,27,"ARAVE",25.75971944,59.14472778,"Ambla vald",134,"Järva maakond",51,134,25.8359720061,59.1616941601
"287",286,827,"REINE",25.96360556,59.16416667,"Ambla vald",134,"Järva maakond",51,134,25.8359720061,59.1616941601
"288",287,301,"LAHTE",26.67471389,58.48054722,"Tartu vald",794,"Tartu maakond",78,794,26.7415817031,58.4772473633
"289",288,748,"VEDU",26.76807778,58.50228056,"Tartu vald",794,"Tartu maakond",78,794,26.7415817031,58.4772473633
"290",289,912,"TATAM",26.90833611,58.43944444,"Tartu vald",794,"Tartu maakond",78,794,26.7415817031,58.4772473633
"291",290,265,"KORVE",26.76876667,58.42334722,"Tartu vald",794,"Tartu maakond",78,794,26.7415817031,58.4772473633
"292",291,721,"VAHIT",26.734225,58.39985833,"Tartu vald",794,"Tartu maakond",78,794,26.7415817031,58.4772473633
"293",292,920,"VAHTP",26.72444167,58.41722222,"Tartu vald",794,"Tartu maakond",78,794,26.7415817031,58.4772473633
"294",293,555,"RLUUL",24.58779167,58.29268889,"Tahkuranna vald",848,"Pärnu maakond",67,848,24.5464435308,58.2387794658
"295",294,715,"UULU",24.58888056,58.24833889,"Tahkuranna vald",848,"Pärnu maakond",67,848,24.5464435308,58.2387794658
"296",295,783,"VOIST",24.4808,58.19780278,"Tahkuranna vald",848,"Pärnu maakond",67,848,24.5464435308,58.2387794658
"297",296,1040,"TAHKU",24.49638889,58.24361111,"Tahkuranna vald",848,"Pärnu maakond",67,848,24.5464435308,58.2387794658
"298",297,16,"ALATS",27.12639167,58.59888333,"Alatskivi vald",126,"Tartu maakond",78,126,27.1125279825,58.6054711115
"299",298,173,"KALLA",27.15909167,58.64866944,"Alatskivi vald",126,"Tartu maakond",78,126,27.1125279825,58.6054711115
"300",299,643,"TAMMA",24.19750278,58.61277778,"Koonga vald",334,"Pärnu maakond",67,334,24.1227847823,58.5845541386
"301",300,684,"TORI",24.83415833,58.48028056,"Tori vald",808,"Pärnu maakond",67,808,24.881108175,58.4803864106
"302",301,598,"SELJA",24.81500833,58.51860556,"Tori vald",808,"Pärnu maakond",67,808,24.881108175,58.4803864106
"303",302,911,"TAALQ",24.76917222,58.44896389,"Tori vald",808,"Pärnu maakond",67,808,24.881108175,58.4803864106
"304",303,128,"IHAMA",26.88165556,58.05526944,"Kõlleste vald",354,"Põlva maakond",65,354,26.8392179678,58.1067256388
"305",304,500,"POPRA",26.76833056,58.16388333,"Kõlleste vald",354,"Põlva maakond",65,354,26.8392179678,58.1067256388
"306",305,176,"KANEQ",26.77139167,57.98583889,"Kanepi vald",285,"Põlva maakond",65,285,26.7597905577,57.9819208971
"307",306,392,"MOOST",27.21972778,58.16666667,"Mooste vald",473,"Põlva maakond",65,473,27.2182673901,58.1701347934
"308",307,245,"KOHIL",24.73054444,59.17028056,"Kohila vald",317,"Rapla maakond",70,317,24.7236090516,59.1579602861
"309",308,504,"PRILL",24.79641389,59.17907778,"Kohila vald",317,"Rapla maakond",70,317,24.7236090516,59.1579602861
"310",309,226,"KIISA",24.67711944,59.21546944,"Kohila vald",317,"Rapla maakond",70,317,24.7236090516,59.1579602861
"311",310,221,"KIHNU",23.97332222,58.12055833,"Kihnu vald",303,"Pärnu maakond",67,303,23.9850546137,58.1293507245
"312",311,689,"TOSTA",23.98888056,58.33583056,"Tõstamaa vald",826,"Pärnu maakond",67,826,24.0449357672,58.3486492967
"313",312,202,"KAVAR",24.19910833,58.27524167,"Tõstamaa vald",826,"Pärnu maakond",67,826,24.0449357672,58.3486492967
"314",313,118,"HIMMA",27.06261667,57.98355556,"Laheda vald",385,"Põlva maakond",65,385,27.0135916826,57.9597104485
"315",314,247,"KOIDU",27.59055556,57.83999444,"Värska vald",934,"Põlva maakond",65,934,27.6561197357,57.900398725
"316",315,578,"SAATS",27.74389167,57.87,"Värska vald",934,"Põlva maakond",65,934,27.6561197357,57.900398725
"317",316,740,"VARSQ",27.61735833,57.95774444,"Värska vald",934,"Põlva maakond",65,934,27.6561197357,57.900398725
"318",317,319,"LEPAS",27.32611667,57.85805278,"Orava vald",547,"Põlva maakond",65,547,27.4346283021,57.8886092523
"319",318,490,"PIUSA",27.47472222,57.84,"Orava vald",547,"Põlva maakond",65,547,27.4346283021,57.8886092523
"320",319,434,"ORAVA",27.47111389,57.92212778,"Orava vald",547,"Põlva maakond",65,547,27.4346283021,57.8886092523
"321",320,383,"MIKIT",27.55444167,58.00526944,"Mikitamäe vald",465,"Põlva maakond",65,465,27.5335268804,58.0112688888
"322",321,540,"RAPIN",27.4475,58.11444167,"Räpina vald",707,"Põlva maakond",65,707,27.3922618734,58.1085708729
"323",322,574,"RUUSA",27.29805556,58.05388333,"Räpina vald",707,"Põlva maakond",65,707,27.3922618734,58.1085708729
"324",323,539,"RAPIK",27.46333056,58.09583056,"Räpina vald",707,"Põlva maakond",65,707,27.3922618734,58.1085708729
"325",324,166,"KAIU",25.05555556,59.01471667,"Kaiu vald",277,"Rapla maakond",70,277,25.1485896778,58.9971213003
"326",325,733,"VAOPE",25.15900833,59.06849444,"Kaiu vald",277,"Rapla maakond",70,277,25.1485896778,58.9971213003
"327",326,720,"VAHAS",25.21249167,58.93805556,"Kaiu vald",277,"Rapla maakond",70,277,25.1485896778,58.9971213003
"328",327,9,"AHJA",27.02777778,58.22333056,"Ahja vald",117,"Põlva maakond",65,117,27.0620522721,58.2054849103
"329",328,940,"AHJAK",27.07083333,58.21027778,"Ahja vald",117,"Põlva maakond",65,117,27.0620522721,58.2054849103
"330",329,22,"AMP",24.84896944,59.52144167,"Viimsi vald",890,"Harju maakond",37,890,24.7892923114,59.5411908659
"331",330,100,"HAABN",24.81583056,59.51499167,"Viimsi vald",890,"Harju maakond",37,890,24.7892923114,59.5411908659
"332",331,382,"MIISA",24.81764167,59.50063889,"Viimsi vald",890,"Harju maakond",37,890,24.7892923114,59.5411908659
"333",332,503,"PRANG",25.01079444,59.63789167,"Viimsi vald",890,"Harju maakond",37,890,24.7892923114,59.5411908659
"334",333,645,"TAMMN",24.89179444,59.54102778,"Viimsi vald",890,"Harju maakond",37,890,24.7892923114,59.5411908659
"335",334,758,"VIISA",24.82972222,59.50805556,"Viimsi vald",890,"Harju maakond",37,890,24.7892923114,59.5411908659
"336",335,407,"MUUSA",24.96079444,59.49099722,"Viimsi vald",890,"Harju maakond",37,890,24.7892923114,59.5411908659
"337",336,674,"TNEEM",24.87972778,59.52888056,"Viimsi vald",890,"Harju maakond",37,890,24.7892923114,59.5411908659
"338",337,755,"VIIMQ",24.84047778,59.50660556,"Viimsi vald",890,"Harju maakond",37,890,24.7892923114,59.5411908659
"339",338,824,"MKAST",24.90055833,59.49139167,"Viimsi vald",890,"Harju maakond",37,890,24.7892923114,59.5411908659
"340",339,520,"PYYNS",24.80527222,59.54277778,"Viimsi vald",890,"Harju maakond",37,890,24.7892923114,59.5411908659
"341",340,561,"ROHTE",24.79639444,59.52833333,"Viimsi vald",890,"Harju maakond",37,890,24.7892923114,59.5411908659
"342",341,562,"ROHUN",24.81084444,59.55999722,"Viimsi vald",890,"Harju maakond",37,890,24.7892923114,59.5411908659
"343",342,1011,"ROHKO",24.79472222,59.555,"Viimsi vald",890,"Harju maakond",37,890,24.7892923114,59.5411908659
"344",343,311,"LEEVI",27.23499444,57.94888889,"Veriora vald",879,"Põlva maakond",65,879,27.299557483,57.9726892462
"345",344,751,"VERIQ",27.33944722,57.99527222,"Veriora vald",879,"Põlva maakond",65,879,27.299557483,57.9726892462
"346",345,729,"VALMA",26.67805278,58.09693889,"Valgjärve vald",856,"Põlva maakond",65,856,26.686268762,58.0883162034
"347",346,957,"MAARI",26.69638889,58.15416667,"Valgjärve vald",856,"Põlva maakond",65,856,26.686268762,58.0883162034
"348",347,554,"RKARU",25.15010556,58.82833333,"Käru vald",375,"Rapla maakond",70,375,25.1515262752,58.8276872302
"349",348,316,"LELLE",24.99500833,58.85999444,"Kehtna vald",292,"Rapla maakond",70,292,24.9203233499,58.8476756522
"350",349,207,"KEHTQ",24.88065556,58.91943889,"Kehtna vald",292,"Rapla maakond",70,292,24.9203233499,58.8476756522
"351",350,63,"EIDAP",24.95033889,58.76651944,"Kehtna vald",292,"Rapla maakond",70,292,24.9203233499,58.8476756522
"352",351,206,"KEHTN",24.82223056,58.89999444,"Kehtna vald",292,"Rapla maakond",70,292,24.9203233499,58.8476756522
"353",352,269,"KPERE",24.83444444,58.95638889,"Kehtna vald",292,"Rapla maakond",70,292,24.9203233499,58.8476756522
"354",353,339,"LOODN",24.24221944,58.90082222,"Märjamaa vald",504,"Rapla maakond",70,504,24.3999444472,58.9045365106
"355",354,366,"MARJA",24.42854167,58.90916667,"Märjamaa vald",504,"Rapla maakond",70,504,24.3999444472,58.9045365106
"356",355,725,"VALGU",24.60485833,58.81823333,"Märjamaa vald",504,"Rapla maakond",70,504,24.3999444472,58.9045365106
"357",356,853,"HAIMR",24.44737222,58.86879444,"Märjamaa vald",504,"Rapla maakond",70,504,24.3999444472,58.9045365106
"358",357,736,"VARBO",24.44526667,59.02250278,"Märjamaa vald",504,"Rapla maakond",70,504,24.3999444472,58.9045365106
"359",358,140,"JARKA",24.81666389,58.78360556,"Järvakandi vald",260,"Rapla maakond",70,260,24.8110770118,58.7784346397
"360",359,296,"LACTO",24.83217222,58.99269444,"Rapla vald",669,"Rapla maakond",70,669,24.725644867,59.0344063535
"361",360,243,"KODIL",24.63264167,59.08380556,"Rapla vald",669,"Rapla maakond",70,669,24.725644867,59.0344063535
"362",361,857,"ROA",24.79971944,59.09721944,"Rapla vald",669,"Rapla maakond",70,669,24.725644867,59.0344063535
"363",362,538,"RAPEE",24.81351667,58.99469167,"Rapla vald",669,"Rapla maakond",70,669,24.725644867,59.0344063535
"364",363,541,"RAPL",24.78581667,59.00597778,"Rapla vald",669,"Rapla maakond",70,669,24.725644867,59.0344063535
"365",364,302,"LAIJA",23.00860278,58.40332778,"Laimjala vald",386,"Saare maakond",74,386,23.0247902001,58.4319415366
"366",365,28,"ARDU",25.37555,59.09527778,"Kõue vald",363,"Harju maakond",37,363,25.2962520584,59.1040183104
"367",366,901,"PAUNQ",25.29249167,59.15888889,"Kõue vald",363,"Harju maakond",37,363,25.2962520584,59.1040183104
"368",367,662,"TEHUM",22.24360833,58.18083889,"Salme vald",721,"Saare maakond",74,721,22.1918802641,58.1379342782
"369",368,683,"TORGU",22.07915833,57.97777778,"Torgu vald",807,"Saare maakond",74,807,22.0919165135,57.9884134636
"370",369,618,"SORVE",22.12961667,58.04911389,"Torgu vald",807,"Saare maakond",74,807,22.0919165135,57.9884134636
"371",370,177,"KANIS",23.18944167,58.50332778,"Pöide vald",634,"Saare maakond",74,634,23.1250728064,58.4906940195
"372",371,727,"VALJA",22.79415556,58.41554444,"Valjala vald",858,"Saare maakond",74,858,22.8510608852,58.4035129595
"373",372,584,"SAKLA",22.88026667,58.35971944,"Valjala vald",858,"Saare maakond",74,858,22.8510608852,58.4035129595
"374",373,644,"TAMME",24.64162222,58.92516667,"Raikküla vald",654,"Rapla maakond",70,654,24.6738327322,58.9078638966
"375",374,1020,"RAIKK",24.73527778,58.93944444,"Raikküla vald",654,"Rapla maakond",70,654,24.6738327322,58.9078638966
"376",375,188,"KARLA",22.26278333,58.33554444,"Kärla vald",373,"Saare maakond",74,373,22.2692605568,58.3198715874
"377",376,976,"SAUVE",22.33055556,58.37861111,"Kärla vald",373,"Saare maakond",74,373,22.2692605568,58.3198715874
"378",377,231,"KIPI",22.02795556,58.26681389,"Lümanda vald",440,"Saare maakond",74,440,22.0288966873,58.2696309438
"379",378,892,"KOIMQ",22.12596667,58.22641944,"Lümanda vald",440,"Saare maakond",74,440,22.0288966873,58.2696309438
"380",379,638,"TAGAV",22.87577778,58.51660833,"Orissaare vald",550,"Saare maakond",74,550,22.9316420857,58.5620476813
"381",380,435,"ORIMA",23.06695556,58.55805556,"Orissaare vald",550,"Saare maakond",74,550,22.9316420857,58.5620476813
"382",381,201,"KAVAN",22.83971667,58.60388333,"Orissaare vald",550,"Saare maakond",74,550,22.9316420857,58.5620476813
"383",382,615,"SONDA",26.84339167,59.34969167,"Sonda vald",751,"Ida-Viru maakond",44,751,26.8419848877,59.3421793773
"384",383,400,"MUSJA",22.22583333,58.47194167,"Mustjala vald",483,"Saare maakond",74,483,22.3148930291,58.4922462747
"385",384,459,"PANGA",22.35351667,58.53244167,"Mustjala vald",483,"Saare maakond",74,483,22.3148930291,58.4922462747
"386",385,572,"RUHNU",23.25666389,57.80610556,"Ruhnu vald",689,"Saare maakond",74,689,23.2437809746,57.8013325815
"387",386,369,"MASA",22.70834444,58.35083056,"Pihtla vald",592,"Saare maakond",74,592,22.7098784183,58.3343904489
"388",387,518,"PYHAQ",22.72622222,58.30558056,"Pihtla vald",592,"Saare maakond",74,592,22.7098784183,58.3343904489
"389",388,747,"VATTA",22.66939167,58.24147222,"Pihtla vald",592,"Saare maakond",74,592,22.7098784183,58.3343904489
"390",389,395,"MUHU",23.23612778,58.59916667,"Muhu vald",478,"Saare maakond",74,478,23.2478417057,58.6005172996
"391",390,893,"KUIVA",23.35666944,58.58916111,"Muhu vald",478,"Saare maakond",74,478,23.2478417057,58.6005172996
"392",391,856,"NOMMK",23.19239444,58.67088333,"Muhu vald",478,"Saare maakond",74,478,23.2478417057,58.6005172996
"393",392,315,"LEISI",22.68998889,58.56721667,"Leisi vald",403,"Saare maakond",74,403,22.6499337507,58.5261091659
"394",393,379,"METSQ",22.53284722,58.57343889,"Leisi vald",403,"Saare maakond",74,403,22.6499337507,58.5261091659
"395",394,220,"KIHMA",22.06194722,58.35694167,"Kihelkonna vald",301,"Saare maakond",74,301,22.0472503968,58.4029649023
"396",395,712,"UNDVA",21.91911667,58.51396389,"Kihelkonna vald",301,"Saare maakond",74,301,22.0472503968,58.4029649023
"397",396,115,"HEIMT",25.52064444,58.31038056,"Pärsti vald",629,"Viljandi maakond",84,629,25.4721173447,58.3561703404
"398",397,771,"VIRLE",25.57083333,58.37472222,"Pärsti vald",629,"Viljandi maakond",84,629,25.4721173447,58.3561703404
"399",398,1034,"SAVIK",25.48666667,58.42138889,"Pärsti vald",629,"Viljandi maakond",84,629,25.4721173447,58.3561703404
"400",399,739,"VARNJ",27.24007222,58.47721667,"Vara vald",861,"Tartu maakond",78,861,27.0219458822,58.5104416328
"401",400,259,"KOOSA",27.08665833,58.53415556,"Vara vald",861,"Tartu maakond",78,861,27.0219458822,58.5104416328
"402",401,734,"VARA",26.89554444,58.51054722,"Vara vald",861,"Tartu maakond",78,861,27.0219458822,58.5104416328
"403",402,68,"ELVA",26.40378056,58.24111389,"Konguta vald",331,"Tartu maakond",78,331,26.3426820489,58.2686448903
"404",403,510,"PUHJA",26.31915833,58.34165833,"Puhja vald",605,"Tartu maakond",78,605,26.3564706729,58.3716069049
"405",404,372,"MEHIK",27.45415833,58.23360556,"Meeksi vald",454,"Tartu maakond",78,454,27.3738544628,58.2828106521
"406",405,283,"KUREP",26.83166667,58.31138889,"Haaslava vald",185,"Tartu maakond",78,185,26.8616711798,58.2863696206
"407",406,563,"ROIU",26.87887778,58.30638056,"Haaslava vald",185,"Tartu maakond",78,185,26.8616711798,58.2863696206
"408",407,484,"PIIRI",27.52139167,58.38026944,"Piirissaare vald",595,"Tartu maakond",78,595,27.5006935233,58.3754030741
"409",408,174,"KAMJA",26.70817778,58.23752778,"Kambja vald",282,"Tartu maakond",78,282,26.6858690846,58.2079693391
"410",409,460,"PANGO",26.58276944,58.19361389,"Kambja vald",282,"Tartu maakond",78,282,26.6858690846,58.2079693391
"411",410,182,"KAREV",26.42766667,58.45174444,"Laeva vald",383,"Tartu maakond",78,383,26.3672257232,58.468600133
"412",411,299,"LAEVA",26.35805833,58.46805278,"Laeva vald",383,"Tartu maakond",78,383,26.3672257232,58.468600133
"413",412,691,"TSIRG",26.16304722,57.85776667,"Tõlliste vald",820,"Valga maakond",82,820,26.2252231531,57.8484788268
"414",413,537,"RANNU",26.21583889,58.24333056,"Rannu vald",666,"Tartu maakond",78,666,26.1991701219,58.2948186725
"415",414,835,"SANGL",26.18360833,58.33250556,"Rannu vald",666,"Tartu maakond",78,666,26.1991701219,58.2948186725
"416",415,647,"TAMQ",26.16388056,59.16638333,"Tamsalu vald",786,"Lääne-Viru maakond",59,786,26.1076570168,59.1589436571
"417",416,36,"ASSAM",26.26888889,59.225,"Tamsalu vald",786,"Lääne-Viru maakond",59,786,26.1076570168,59.1589436571
"418",417,649,"TAMSA",26.09110833,59.15889444,"Tamsalu vald",786,"Lääne-Viru maakond",59,786,26.1076570168,59.1589436571
"419",418,1023,"VAJAN",26.00138889,59.10666667,"Tamsalu vald",786,"Lääne-Viru maakond",59,786,26.1076570168,59.1589436571
"420",419,333,"LKONN",27.20555556,58.27583056,"Võnnu vald",915,"Tartu maakond",78,915,27.17784709,58.3056528029
"421",420,786,"VONNU",27.00554722,58.28471667,"Võnnu vald",915,"Tartu maakond",78,915,27.17784709,58.3056528029
"422",421,133,"ILTSA",26.55694444,58.39888333,"Tähtvere vald",831,"Tartu maakond",78,831,26.5822483073,58.3941565369
"423",422,102,"HAAGE",26.61889167,58.35221667,"Tähtvere vald",831,"Tartu maakond",78,831,26.5822483073,58.3941565369
"424",423,671,"TIKSO",26.655825,58.40999167,"Tähtvere vald",831,"Tartu maakond",78,831,26.5822483073,58.3941565369
"425",424,112,"HARGL",26.40249167,57.62943333,"Taheva vald",779,"Valga maakond",82,779,26.330533452,57.656192474
"426",425,891,"KOIKY",26.28719444,57.67743889,"Taheva vald",779,"Valga maakond",82,779,26.330533452,57.656192474
"427",426,289,"KUUTS",26.32444167,58.02888889,"Otepää vald",636,"Valga maakond",82,636,26.4686913469,58.0260976842
"428",427,249,"KOIGU",26.57305556,57.97166389,"Otepää vald",636,"Valga maakond",82,636,26.4686913469,58.0260976842
"429",428,424,"NUSTA",26.495,58.05833333,"Otepää vald",636,"Valga maakond",82,636,26.4686913469,58.0260976842
"430",429,437,"OTEPA",26.47137778,58.03916667,"Otepää vald",636,"Valga maakond",82,636,26.4686913469,58.0260976842
"431",430,915,"TEHVA",26.51638889,58.05110833,"Otepää vald",636,"Valga maakond",82,636,26.4686913469,58.0260976842
"432",431,126,"HUMUQ",26.04203333,57.88638889,"Hummuli vald",208,"Valga maakond",82,208,25.9557009283,57.902057631
"433",432,293,"KYLIQ",26.60444722,58.3275,"Ülenurme vald",949,"Tartu maakond",78,949,26.6774712378,58.3116112752
"434",433,702,"TVAND",26.70486667,58.32366944,"Ülenurme vald",949,"Tartu maakond",78,949,26.6774712378,58.3116112752
"435",434,545,"REOLA",26.70899167,58.29625,"Ülenurme vald",949,"Tartu maakond",78,949,26.6774712378,58.3116112752
"436",435,800,"YLENU",26.72500278,58.31610833,"Ülenurme vald",949,"Tartu maakond",78,949,26.6774712378,58.3116112752
"437",436,963,"OSSU",26.67555556,58.36777778,"Ülenurme vald",949,"Tartu maakond",78,949,26.6774712378,58.3116112752
"438",437,620,"SPEED",25.67581667,58.43582778,"Saarepeedi vald",715,"Viljandi maakond",84,715,25.65682387,58.4351949737
"439",438,428,"OIU",25.97804444,58.40915833,"Kolga-Jaani vald",328,"Viljandi maakond",84,328,25.9642221037,58.4893636532
"440",439,236,"KJAAN",25.93416667,58.52916667,"Kolga-Jaani vald",328,"Viljandi maakond",84,328,25.9642221037,58.4893636532
"441",440,4,"ABJA",25.38553889,58.12610833,"Abja vald",105,"Viljandi maakond",84,105,25.26385742,58.0978883094
"442",441,389,"MOISA",25.23749167,58.11944167,"Abja vald",105,"Viljandi maakond",84,105,25.26385742,58.0978883094
"443",442,390,"MOISQ",25.17599167,58.10060556,"Abja vald",105,"Viljandi maakond",84,105,25.26385742,58.0978883094
"444",443,113,"HARIM",26.35110833,57.99832778,"Sangaste vald",724,"Valga maakond",82,724,26.3148929573,57.9504198822
"445",444,589,"SANGA",26.28916667,57.92388333,"Sangaste vald",724,"Valga maakond",82,724,26.3148929573,57.9504198822
"446",445,227,"KILLI",26.17583056,57.96277778,"Õru vald",943,"Valga maakond",82,943,26.1593846287,57.9443008602
"447",446,189,"KARST",25.79640278,58.13805556,"Tarvastu vald",797,"Viljandi maakond",84,797,25.853725555,58.2051766791
"448",447,624,"SUISL",25.96444444,58.15358056,"Tarvastu vald",797,"Viljandi maakond",84,797,25.853725555,58.2051766791
"449",448,404,"MUSTL",25.86666667,58.23527222,"Tarvastu vald",797,"Viljandi maakond",84,797,25.853725555,58.2051766791
"450",449,429,"OLUST",25.57054444,58.54555278,"Suure-Jaani vald",758,"Viljandi maakond",84,758,25.3870812447,58.5058230887
"451",450,609,"SJARL",25.48444444,58.53499167,"Suure-Jaani vald",758,"Viljandi maakond",84,758,25.3870812447,58.5058230887
"452",451,746,"VASTE",25.45443333,58.44444444,"Suure-Jaani vald",758,"Viljandi maakond",84,758,25.3870812447,58.5058230887
"453",452,848,"VOIVA",25.63142778,58.48934167,"Suure-Jaani vald",758,"Viljandi maakond",84,758,25.3870812447,58.5058230887
"454",453,260,"KOOTS",25.24876944,58.57986944,"Suure-Jaani vald",758,"Viljandi maakond",84,758,25.3870812447,58.5058230887
"455",454,588,"SANDR",25.16888333,58.42361389,"Suure-Jaani vald",758,"Viljandi maakond",84,758,25.3870812447,58.5058230887
"456",455,351,"LYLLE",26.35027222,57.74860556,"Karula vald",289,"Valga maakond",82,289,26.323896702,57.7541637152
"457",456,507,"PRTSI",26.10084167,58.09139167,"Puka vald",608,"Valga maakond",82,608,26.178211418,58.0550066332
"458",457,511,"PUKAQ",26.24583056,58.06028056,"Puka vald",608,"Valga maakond",82,608,26.178211418,58.0550066332
"459",458,710,"UKARI",25.3425,58.24165556,"Halliste vald",192,"Viljandi maakond",84,192,25.4037409402,58.2129666347
"460",459,701,"TUSTQ",25.79721944,58.40194167,"Viiratsi vald",892,"Viljandi maakond",84,892,25.7842598963,58.3788282512
"461",460,757,"VIIRA",25.64778889,58.35444167,"Viiratsi vald",892,"Viljandi maakond",84,892,25.7842598963,58.3788282512
"462",461,999,"VVOID",25.66194444,58.39166667,"Viiratsi vald",892,"Viljandi maakond",84,892,25.7842598963,58.3788282512
"463",462,397,"MURAT",27.05194444,57.58333333,"Haanja vald",181,"Võru maakond",86,181,27.0695877682,57.6635782231
"464",463,575,"RUUSQ",27.09276944,57.62944167,"Haanja vald",181,"Võru maakond",86,181,27.0695877682,57.6635782231
"465",464,483,"PIIPS",27.09473056,57.67361667,"Haanja vald",181,"Võru maakond",86,181,27.0695877682,57.6635782231
"466",465,842,"HAANJ",27.05509167,57.72113333,"Haanja vald",181,"Võru maakond",86,181,27.0695877682,57.6635782231
"467",466,256,"KOO",25.738875,58.61594167,"Kõo vald",357,"Viljandi maakond",84,357,25.7011628842,58.610849145
"468",467,777,"VKOPU",25.30528056,58.32083333,"Kõpu vald",360,"Viljandi maakond",84,360,25.1731504813,58.352893808
"469",468,422,"NUIA",25.54805556,58.09805278,"Karksi vald",600,"Viljandi maakond",84,600,25.5879194851,58.0854206469
"470",469,697,"TUHAL",25.65481389,58.17108056,"Karksi vald",600,"Viljandi maakond",84,600,25.5879194851,58.0854206469
"471",470,330,"LILLI",25.54721944,58.00139167,"Karksi vald",600,"Viljandi maakond",84,600,25.5879194851,58.0854206469
"472",471,119,"HOLRE",25.72000556,58.28249167,"Paistu vald",570,"Viljandi maakond",84,570,25.6607621256,58.268912026
"473",472,625,"SULTS",25.58721667,58.23943889,"Paistu vald",570,"Viljandi maakond",84,570,25.6607621256,58.268912026
"474",473,465,"PARKS",26.99510556,57.89669167,"Võru vald",918,"Võru maakond",86,918,26.9975873412,57.8357483266
"475",474,120,"HOLSA",27.15138333,57.7725,"Võru vald",918,"Võru maakond",86,918,26.9975873412,57.8357483266
"476",475,274,"KUBJA",26.99850556,57.80896667,"Võru vald",918,"Võru maakond",86,918,26.9975873412,57.8357483266
"477",476,391,"MOKSI",27.04499167,57.76166389,"Võru vald",918,"Võru maakond",86,918,26.9975873412,57.8357483266
"478",477,868,"NURSI",26.93499167,57.78,"Võru vald",918,"Võru maakond",86,918,26.9975873412,57.8357483266
"479",478,217,"KERGU",24.75722222,58.67055556,"Vändra vald",929,"Pärnu maakond",67,929,24.9665498661,58.6423249126
"480",479,524,"RAE",25.27764444,58.71483056,"Vändra vald",929,"Pärnu maakond",67,929,24.9665498661,58.6423249126
"481",480,731,"VANDR",25.02027222,58.65083056,"Vändra vald",929,"Pärnu maakond",67,929,24.9665498661,58.6423249126
"482",481,1013,"ALUST",24.91916667,58.62861111,"Vändra vald",929,"Pärnu maakond",67,929,24.9665498661,58.6423249126
"483",482,1052,"SUJOE",25.09861111,58.62,"Vändra vald",929,"Pärnu maakond",67,929,24.9665498661,58.6423249126
"484",483,344,"LUHAM",27.37778333,57.64305556,"Misso vald",468,"Võru maakond",86,468,27.2589043539,57.6092325081
"485",484,384,"MISSO",27.22721667,57.60832778,"Misso vald",468,"Võru maakond",86,468,27.2589043539,57.6092325081
"486",485,550,"RIMAE",26.85185278,57.66252778,"Rõuge vald",697,"Võru maakond",86,697,26.87986142,57.7216510254
"487",486,571,"ROUGE",26.92722222,57.71193889,"Rõuge vald",697,"Võru maakond",86,697,26.87986142,57.7216510254
"488",487,590,"SANNA",26.80665556,57.73778333,"Rõuge vald",697,"Võru maakond",86,697,26.87986142,57.7216510254
"489",488,614,"SOMER",26.80243056,57.87738889,"Sõmerpalu vald",767,"Võru maakond",86,767,26.7603497932,57.8669590905
"490",489,375,"MEREM",27.45776667,57.73360556,"Meremäe vald",460,"Võru maakond",86,460,27.4459787501,57.7741882335
"491",490,135,"INGLI",24.93704722,59.01594444,"Juuru vald",240,"Rapla maakond",70,240,24.9413449715,59.0918655235
"492",491,141,"JARLE",24.92445,59.13666667,"Juuru vald",240,"Rapla maakond",70,240,24.9413449715,59.0918655235
"493",492,154,"JUURU",24.89624167,59.08313056,"Juuru vald",240,"Rapla maakond",70,240,24.9413449715,59.0918655235
"494",493,952,"JUUKO",24.95722222,59.05833333,"Juuru vald",240,"Rapla maakond",70,240,24.9413449715,59.0918655235
"495",494,326,"LIINA",27.28055556,57.72110556,"Vastseliina vald",874,"Võru maakond",86,874,27.2643447369,57.7423517708
"496",495,567,"ROOSA",26.66527222,57.55360556,"Mõniste vald",493,"Võru maakond",86,493,26.5631747396,57.5995962219
"497",496,591,"SARU",26.55416389,57.60888889,"Mõniste vald",493,"Võru maakond",86,493,26.5631747396,57.5995962219
"498",497,447,"PAIDL",26.47555556,58.11526944,"Palupera vald",582,"Valga maakond",82,582,26.4426327151,58.1243458909
"499",498,867,"NOVA",23.68750556,59.22305556,"Nõva vald",531,"Lääne maakond",57,531,23.7536164998,59.1641123332
"500",499,738,"VARIK",23.80143056,59.12715556,"Nõva vald",531,"Lääne maakond",57,531,23.7536164998,59.1641123332
"501",500,275,"KUIJO",23.99583056,59.08006944,"Risti vald",680,"Lääne maakond",57,680,24.0382162497,59.0457636015
"502",501,552,"RISTI",24.02473056,58.99027778,"Risti vald",680,"Lääne maakond",57,680,24.0382162497,59.0457636015
"503",502,29,"ARE",24.57721389,58.53110556,"Are vald",149,"Pärnu maakond",67,149,24.6416282036,58.5344075958
"504",503,692,"TSOOR",26.66972222,57.74860278,"Antsla vald",143,"Võru maakond",86,143,26.5747017764,57.7771302074
"505",504,26,"ANTSL",26.52054444,57.817225,"Antsla vald",143,"Võru maakond",86,143,26.5747017764,57.7771302074
"506",505,8,"AHIJR",26.47722778,57.73333333,"Antsla vald",143,"Võru maakond",86,143,26.5747017764,57.7771302074
"507",506,713,"URVAS",26.58982222,57.90483056,"Urvaste vald",843,"Võru maakond",86,843,26.5399913985,57.9031131312
"508",507,866,"LUUNJ",26.87916389,58.35610556,"Luunja vald",432,"Tartu maakond",78,432,26.9450945079,58.3943903472
"509",508,290,"KVAST",27.06278889,58.41083056,"Luunja vald",432,"Tartu maakond",78,432,26.9450945079,58.3943903472
"510",509,349,"LUUNA",26.91470556,58.37055556,"Luunja vald",432,"Tartu maakond",78,432,26.9450945079,58.3943903472
"511",510,653,"TARAL",26.78304167,58.37666944,"Luunja vald",432,"Tartu maakond",78,432,26.9450945079,58.3943903472
"512",511,331,"LINNA",23.71227222,58.99802222,"Oru vald",552,"Lääne maakond",57,552,23.794912807,59.0471905381
"513",512,442,"PADA",26.76416944,59.44444167,"Viru-Nigula vald",902,"Lääne-Viru maakond",59,902,26.625123442,59.4685844133
"514",513,308,"LASVA",27.17638056,57.85249444,"Lasva vald",389,"Võru maakond",86,389,27.1742422182,57.8719624144
"515",514,519,"PYSSI",27.03556389,59.35888333,"Püssi linn",645,"Ida-Viru maakond",44,645,27.0453439239,59.3596540241
"516",515,592,"SAUE",24.57027222,59.31749167,"Saue linn",728,"Harju maakond",37,728,24.5566506425,59.3199884553
"517",516,676,"TOKKE",24.54104444,59.32166667,"Saue linn",728,"Harju maakond",37,728,24.5566506425,59.3199884553
"518",517,494,"POKOR",25.98361667,58.66194167,"Põltsamaa linn",617,"Jõgeva maakond",49,617,25.9761935201,58.6529832489
"519",518,968,"POLPI",25.98444444,58.65416667,"Põltsamaa linn",617,"Jõgeva maakond",49,617,25.9761935201,58.6529832489
"520",519,90,"FELIX",25.96495556,58.65533889,"Põltsamaa linn",617,"Jõgeva maakond",49,617,25.9761935201,58.6529832489
"521",520,498,"POLMA",25.98249444,58.64555556,"Põltsamaa linn",617,"Jõgeva maakond",49,617,25.9761935201,58.6529832489
"522",521,148,"JOGPO",26.39860833,58.745,"Jõgeva linn",249,"Jõgeva maakond",49,249,26.3938680383,58.7440702203
"523",522,281,"KUNKO",26.52926389,59.49871944,"Kunda linn",345,"Lääne-Viru maakond",59,345,26.5319062215,59.5064962026
"524",523,818,"KUNDA",26.51444167,59.49999167,"Kunda linn",345,"Lääne-Viru maakond",59,345,26.5319062215,59.5064962026
"525",524,418,"NJOES",28.03694167,59.46249444,"Narva-Jõesuu linn",513,"Ida-Viru maakond",44,513,28.0253964715,59.4423066492
"526",525,897,"LRAND",28.00943889,59.440275,"Narva-Jõesuu linn",513,"Ida-Viru maakond",44,513,28.0253964715,59.4423066492
"527",526,603,"SILLA",27.75916667,59.39860833,"Sillamäe linn",735,"Ida-Viru maakond",44,735,27.7427925153,59.3992002053
"528",527,908,"SILKO",27.74860556,59.40360556,"Sillamäe linn",735,"Ida-Viru maakond",44,735,27.7427925153,59.3992002053
"529",528,781,"VOHMA",25.55943333,58.62749167,"Võhma linn",912,"Viljandi maakond",84,912,25.5540248558,58.630529383
"530",529,453,"PALDI",24.06888333,59.35111389,"Paldiski linn",580,"Harju maakond",37,580,24.031023384,59.3462852456
"531",530,457,"PALSA",24.08471667,59.33416389,"Paldiski linn",580,"Harju maakond",37,580,24.031023384,59.3462852456
"532",531,111,"HAREH",23.53250556,58.95194444,"Haapsalu linn",183,"Lääne maakond",57,183,23.5396481618,58.9340921176
"533",532,103,"HAAPS",23.54193889,58.94166667,"Haapsalu linn",183,"Lääne maakond",57,183,23.5396481618,58.9340921176
"534",533,116,"HFORT",23.54757222,58.92783333,"Haapsalu linn",183,"Lääne maakond",57,183,23.5396481618,58.9340921176
"535",534,945,"HAKAS",23.55861111,58.93388889,"Haapsalu linn",183,"Lääne maakond",57,183,23.5396481618,58.9340921176
"536",535,763,"VILHO",25.59832222,58.36805278,"Viljandi linn",897,"Viljandi maakond",84,897,25.59128476,58.3599325495
"537",536,765,"VILMA",25.58258889,58.34955556,"Viljandi linn",897,"Viljandi maakond",84,897,25.59128476,58.3599325495
"538",537,767,"VILTU",25.59832222,58.36389167,"Viljandi linn",897,"Viljandi maakond",84,897,25.59128476,58.3599325495
"539",538,922,"VVAKS",25.58054444,58.36110556,"Viljandi linn",897,"Viljandi maakond",84,897,25.59128476,58.3599325495
"540",539,764,"VILJA",25.59459167,58.37431944,"Viljandi linn",897,"Viljandi maakond",84,897,25.59128476,58.3599325495
"541",540,877,"VKOST",25.62341389,58.36943056,"Viljandi linn",897,"Viljandi maakond",84,897,25.59128476,58.3599325495
"542",541,769,"VIPLA",25.56917222,58.36021944,"Viljandi linn",897,"Viljandi maakond",84,897,25.59128476,58.3599325495
"543",542,250,"KOJAR",27.27027222,59.40139167,"Kohtla-Järve linn",322,"Ida-Viru maakond",44,322,27.339327476,59.3651226829
"544",543,251,"KOJOL",27.29039167,59.40697222,"Kohtla-Järve linn",322,"Ida-Viru maakond",44,322,27.339327476,59.3651226829
"545",544,238,"KJSOO",27.24186667,59.39510556,"Kohtla-Järve linn",322,"Ida-Viru maakond",44,322,27.339327476,59.3651226829
"546",545,917,"TOORU",27.56449167,59.36988611,"Kohtla-Järve linn",322,"Ida-Viru maakond",44,322,27.339327476,59.3651226829
"547",546,10,"AHTKO",27.46526667,59.31443889,"Kohtla-Järve linn",322,"Ida-Viru maakond",44,322,27.339327476,59.3651226829
"548",547,11,"AHTME",27.42278889,59.32833333,"Kohtla-Järve linn",322,"Ida-Viru maakond",44,322,27.339327476,59.3651226829
"549",548,969,"PURUT",27.4175,59.33638889,"Kohtla-Järve linn",322,"Ida-Viru maakond",44,322,27.339327476,59.3651226829
"550",549,980,"SOMPA",27.28583333,59.33805556,"Kohtla-Järve linn",322,"Ida-Viru maakond",44,322,27.339327476,59.3651226829
"551",550,212,"KEITF",24.42304444,59.30805833,"Keila linn",296,"Harju maakond",37,296,24.3932409089,59.3118232006
"552",551,211,"KEILH",24.40555278,59.31333056,"Keila linn",296,"Harju maakond",37,296,24.3932409089,59.3118232006
"553",552,209,"KEIKE",24.4022,59.31793889,"Keila linn",296,"Harju maakond",37,296,24.3932409089,59.3118232006
"554",553,840,"KEIKO",24.4,59.30166667,"Keila linn",296,"Harju maakond",37,296,24.3932409089,59.3118232006
"555",554,1003,"KESOS",24.38166667,59.32444444,"Keila linn",296,"Harju maakond",37,296,24.3932409089,59.3118232006
"556",555,180,"KARDL",22.72195,58.9925,"Kärdla linn",371,"Hiiu maakond",39,371,22.7441082958,58.9961704299
"557",556,187,"KARKE",22.74804722,59.00305278,"Kärdla linn",371,"Hiiu maakond",39,371,22.7441082958,58.9961704299
"558",557,468,"PARPI",24.50138333,58.40860556,"Pärnu linn",625,"Pärnu maakond",67,625,24.5259275582,58.3838964769
"559",558,501,"PORTA",24.50305278,58.38639167,"Pärnu linn",625,"Pärnu maakond",67,625,24.5259275582,58.3838964769
"560",559,845,"PROHU",24.50444167,58.3975,"Pärnu linn",625,"Pärnu maakond",67,625,24.5259275582,58.3838964769
"561",560,882,"AIDEK",24.48915833,58.39916389,"Pärnu linn",625,"Pärnu maakond",67,625,24.5259275582,58.3838964769
"562",561,493,"PNIID",24.54388889,58.36694167,"Pärnu linn",625,"Pärnu maakond",67,625,24.5259275582,58.3838964769
"563",562,665,"TEPAR",24.51055278,58.37304722,"Pärnu linn",625,"Pärnu maakond",67,625,24.5259275582,58.3838964769
"564",563,467,"PARMA",24.57750556,58.37693889,"Pärnu linn",625,"Pärnu maakond",67,625,24.5259275582,58.3838964769
"565",564,525,"RAEKY",24.57442222,58.35653333,"Pärnu linn",625,"Pärnu maakond",67,625,24.5259275582,58.3838964769
"566",565,971,"RAEKK",24.57861111,58.34555556,"Pärnu linn",625,"Pärnu maakond",67,625,24.5259275582,58.3838964769
"567",566,462,"PAPIN",24.5425,58.37333056,"Pärnu linn",625,"Pärnu maakond",67,625,24.5259275582,58.3838964769
"568",567,466,"PARLI",24.52496667,58.38256389,"Pärnu linn",625,"Pärnu maakond",67,625,24.5259275582,58.3838964769
"569",568,471,"PASTR",24.52106667,58.37330278,"Pärnu linn",625,"Pärnu maakond",67,625,24.5259275582,58.3838964769
"570",569,839,"PKUTS",24.54027778,58.38583056,"Pärnu linn",625,"Pärnu maakond",67,625,24.5259275582,58.3838964769
"571",570,1005,"PASPO",24.53444444,58.37638889,"Pärnu linn",625,"Pärnu maakond",67,625,24.5259275582,58.3838964769
"572",571,480,"PHAIG",24.54777778,58.38749167,"Pärnu linn",625,"Pärnu maakond",67,625,24.5259275582,58.3838964769
"573",572,594,"SAUGA",24.47585,58.39,"Pärnu linn",625,"Pärnu maakond",67,625,24.5259275582,58.3838964769
"574",573,596,"SAVIQ",24.53046944,58.39738056,"Pärnu linn",625,"Pärnu maakond",67,625,24.5259275582,58.3838964769
"575",574,463,"PARHO",24.50610833,58.385,"Pärnu linn",625,"Pärnu maakond",67,625,24.5259275582,58.3838964769
"576",575,469,"PARSA",24.50221667,58.37694167,"Pärnu linn",625,"Pärnu maakond",67,625,24.5259275582,58.3838964769
"577",576,470,"PARTF",24.49554722,58.38416944,"Pärnu linn",625,"Pärnu maakond",67,625,24.5259275582,58.3838964769
"578",577,667,"TERVI",24.48502778,58.38350278,"Pärnu linn",625,"Pärnu maakond",67,625,24.5259275582,58.3838964769
"579",578,850,"PKUKE",24.51055556,58.3825,"Pärnu linn",625,"Pärnu maakond",67,625,24.5259275582,58.3838964769
"580",579,1030,"PARNA",24.49638889,58.37916667,"Pärnu linn",625,"Pärnu maakond",67,625,24.5259275582,58.3838964769
"581",580,626,"SUNSE",24.49833056,58.37416667,"Pärnu linn",625,"Pärnu maakond",67,625,24.5259275582,58.3838964769
"582",581,607,"SINDI",24.66444444,58.40971944,"Sindi linn",741,"Pärnu maakond",67,741,24.6535483401,58.400587765
"583",582,69,"ELVKO",26.41334167,58.21944167,"Elva linn",170,"Tartu maakond",78,170,26.4196134866,58.2268400021
"584",583,788,"VORRJ",27.02416667,57.82749444,"Võru linn",919,"Võru maakond",86,919,27.0046819256,57.8384484973
"585",584,790,"WORUK",27.00270278,57.84094167,"Võru linn",919,"Võru maakond",86,919,27.0046819256,57.8384484973
"586",585,789,"VORKE",26.99833056,57.84666667,"Võru linn",919,"Võru maakond",86,919,27.0046819256,57.8384484973
"587",586,533,"RAKOL",26.37185833,59.35704444,"Rakvere linn",663,"Lääne-Viru maakond",59,663,26.3628740797,59.3453399665
"588",587,531,"RAKLA",26.36306389,59.34915556,"Rakvere linn",663,"Lääne-Viru maakond",59,663,26.3628740797,59.3453399665
"589",588,532,"RAKMA",26.34390278,59.35083056,"Rakvere linn",663,"Lääne-Viru maakond",59,663,26.3628740797,59.3453399665
"590",589,534,"RAKTL",26.359175,59.35166667,"Rakvere linn",663,"Lääne-Viru maakond",59,663,26.3628740797,59.3453399665
"591",590,526,"RAGAQ",26.37703056,59.33952778,"Rakvere linn",663,"Lääne-Viru maakond",59,663,26.3628740797,59.3453399665
"592",591,535,"RAKVE",26.36835278,59.34551944,"Rakvere linn",663,"Lääne-Viru maakond",59,663,26.3628740797,59.3453399665
"593",592,1041,"RAPPA",26.34613333,59.34969444,"Rakvere linn",663,"Lääne-Viru maakond",59,663,26.3628740797,59.3453399665
"594",593,1046,"RAKKU",26.35817222,59.33335278,"Rakvere linn",663,"Lääne-Viru maakond",59,663,26.3628740797,59.3453399665
"595",594,127,"HUNDI",24.71551667,59.45766667,"Tallinna linn",784,"Harju maakond",37,784,24.7436642049,59.424938231
"596",595,155,"JUVEL",24.68243889,59.41718889,"Tallinna linn",784,"Harju maakond",37,784,24.7436642049,59.424938231
"597",596,380,"MHAIG",24.69153056,59.43121667,"Tallinna linn",784,"Harju maakond",37,784,24.7436642049,59.424938231
"598",597,639,"TALAK",24.67722778,59.41194167,"Tallinna linn",784,"Harju maakond",37,784,24.7436642049,59.424938231
"599",598,670,"TIHNI",24.63829444,59.38374722,"Tallinna linn",784,"Harju maakond",37,784,24.7436642049,59.424938231
"600",599,679,"TONIS",24.73659167,59.43242222,"Tallinna linn",784,"Harju maakond",37,784,24.7436642049,59.424938231
"601",600,58,"EEGRU",24.74972222,59.42860556,"Tallinna linn",784,"Harju maakond",37,784,24.7436642049,59.424938231
"602",601,230,"KINGA",24.74440556,59.43759444,"Tallinna linn",784,"Harju maakond",37,784,24.7436642049,59.424938231
"603",602,461,"PANK",24.74305833,59.43249444,"Tallinna linn",784,"Harju maakond",37,784,24.7436642049,59.424938231
"604",603,666,"TERAS",24.63611389,59.42638333,"Tallinna linn",784,"Harju maakond",37,784,24.7436642049,59.424938231
"605",604,98,"GAAS",24.74833056,59.42778056,"Tallinna linn",784,"Harju maakond",37,784,24.7436642049,59.424938231
"606",605,167,"KAJA",24.66629444,59.40415556,"Tallinna linn",784,"Harju maakond",37,784,24.7436642049,59.424938231
"607",606,599,"SELVE",24.66584444,59.41165833,"Tallinna linn",784,"Harju maakond",37,784,24.7436642049,59.424938231
"608",607,506,"PRITS",24.76382778,59.43522222,"Tallinna linn",784,"Harju maakond",37,784,24.7436642049,59.424938231
"609",608,53,"CPLAZ",24.75811944,59.43471667,"Tallinna linn",784,"Harju maakond",37,784,24.7436642049,59.424938231
"610",609,186,"KARJA",24.7465,59.43668889,"Tallinna linn",784,"Harju maakond",37,784,24.7436642049,59.424938231
"611",610,197,"KAUBA",24.75711944,59.434725,"Tallinna linn",784,"Harju maakond",37,784,24.7436642049,59.424938231
"612",611,321,"LHALL",24.75309722,59.44663056,"Tallinna linn",784,"Harju maakond",37,784,24.7436642049,59.424938231
"613",612,773,"VIRU",24.74839167,59.4369,"Tallinna linn",784,"Harju maakond",37,784,24.7436642049,59.424938231
"614",613,18,"ALGOR",24.64199167,59.39430833,"Tallinna linn",784,"Harju maakond",37,784,24.7436642049,59.424938231
"615",614,38,"ASTAN",24.63846667,59.40452778,"Tallinna linn",784,"Harju maakond",37,784,24.7436642049,59.424938231
"616",615,162,"KADAK",24.64554444,59.40166389,"Tallinna linn",784,"Harju maakond",37,784,24.7436642049,59.424938231
"617",616,297,"LADA",24.65691389,59.40598056,"Tallinna linn",784,"Harju maakond",37,784,24.7436642049,59.424938231
"618",617,122,"HOTAL",24.73194722,59.43533056,"Tallinna linn",784,"Harju maakond",37,784,24.7436642049,59.424938231
"619",618,341,"LOSSI",24.73728333,59.43581389,"Tallinna linn",784,"Harju maakond",37,784,24.7436642049,59.424938231
"620",619,423,"NUNNE",24.74083056,59.43943889,"Tallinna linn",784,"Harju maakond",37,784,24.7436642049,59.424938231
"621",620,611,"SNELL",24.73693889,59.43944167,"Tallinna linn",784,"Harju maakond",37,784,24.7436642049,59.424938231
"622",621,681,"TOOMP",24.74021667,59.43713333,"Tallinna linn",784,"Harju maakond",37,784,24.7436642049,59.424938231
"623",622,881,"SBOCK",24.74029167,59.43810556,"Tallinna linn",784,"Harju maakond",37,784,24.7436642049,59.424938231
"624",623,646,"TAMMS",24.67499444,59.40611389,"Tallinna linn",784,"Harju maakond",37,784,24.7436642049,59.424938231
"625",624,376,"MERIV",24.84522222,59.48646667,"Tallinna linn",784,"Harju maakond",37,784,24.7436642049,59.424938231
"626",625,406,"MUULI",24.82889167,59.49277222,"Tallinna linn",784,"Harju maakond",37,784,24.7436642049,59.424938231
"627",626,486,"PIRRA",24.83110833,59.47221944,"Tallinna linn",784,"Harju maakond",37,784,24.7436642049,59.424938231
"628",627,488,"PIRTF",24.83826389,59.47106389,"Tallinna linn",784,"Harju maakond",37,784,24.7436642049,59.424938231
"629",628,516,"PUSPA",24.8237,59.46486389,"Tallinna linn",784,"Harju maakond",37,784,24.7436642049,59.424938231
"630",629,304,"LAITN",24.74610556,59.43888889,"Tallinna linn",784,"Harju maakond",37,784,24.7436642049,59.424938231
"631",630,509,"PUHAV",24.74723056,59.43871944,"Tallinna linn",784,"Harju maakond",37,784,24.7436642049,59.424938231
"632",631,67,"ELME",24.72639167,59.44915833,"Tallinna linn",784,"Harju maakond",37,784,24.7436642049,59.424938231
"633",632,121,"HOSPI",24.75471667,59.42888333,"Tallinna linn",784,"Harju maakond",37,784,24.7436642049,59.424938231
"634",633,246,"KOHTU",24.75138333,59.42805833,"Tallinna linn",784,"Harju maakond",37,784,24.7436642049,59.424938231
"635",634,334,"LLAOD",24.72639444,59.38472222,"Tallinna linn",784,"Harju maakond",37,784,24.7436642049,59.424938231
"636",635,358,"MAINO",24.77165833,59.43333889,"Tallinna linn",784,"Harju maakond",37,784,24.7436642049,59.424938231
"637",636,381,"MIIDU",24.82972778,59.49583056,"Tallinna linn",784,"Harju maakond",37,784,24.7436642049,59.424938231
"638",637,394,"MPOIK",24.67950278,59.46169167,"Tallinna linn",784,"Harju maakond",37,784,24.7436642049,59.424938231
"639",638,445,"PAGAR",24.74805278,59.44082222,"Tallinna linn",784,"Harju maakond",37,784,24.7436642049,59.424938231
"640",639,455,"PALJA",24.70822222,59.46060556,"Tallinna linn",784,"Harju maakond",37,784,24.7436642049,59.424938231
"641",640,542,"RAUA",24.76889167,59.43555278,"Tallinna linn",784,"Harju maakond",37,784,24.7436642049,59.424938231
"642",641,580,"SADOL",24.77666667,59.43416667,"Tallinna linn",784,"Harju maakond",37,784,24.7436642049,59.424938231
"643",642,664,"TELE",24.77118889,59.43428056,"Tallinna linn",784,"Harju maakond",37,784,24.7436642049,59.424938231
"644",643,716,"UUSTN",24.74834167,59.43944167,"Tallinna linn",784,"Harju maakond",37,784,24.7436642049,59.424938231
"645",644,745,"VASE",24.77249167,59.43666389,"Tallinna linn",784,"Harju maakond",37,784,24.7436642049,59.424938231
"646",645,672,"TISKR",24.55588056,59.43615556,"Tallinna linn",784,"Harju maakond",37,784,24.7436642049,59.424938231
"647",646,139,"JAKOB",24.76833611,59.43193889,"Tallinna linn",784,"Harju maakond",37,784,24.7436642049,59.424938231
"648",647,151,"JUHKE",24.76704722,59.42878056,"Tallinna linn",784,"Harju maakond",37,784,24.7436642049,59.424938231
"649",648,489,"PIRTV",24.88741667,59.47125556,"Tallinna linn",784,"Harju maakond",37,784,24.7436642049,59.424938231
"650",649,523,"RADIS",24.75777778,59.43341667,"Tallinna linn",784,"Harju maakond",37,784,24.7436642049,59.424938231
"651",650,685,"TORNI",24.76028333,59.43444167,"Tallinna linn",784,"Harju maakond",37,784,24.7436642049,59.424938231
"652",651,756,"VIIMS",24.84313333,59.49485556,"Tallinna linn",784,"Harju maakond",37,784,24.7436642049,59.424938231
"653",652,791,"VOSA",24.85181944,59.48216389,"Tallinna linn",784,"Harju maakond",37,784,24.7436642049,59.424938231
"654",653,796,"YHISP",24.76139167,59.43444444,"Tallinna linn",784,"Harju maakond",37,784,24.7436642049,59.424938231
"655",654,831,"KAKSI",24.76083056,59.43305556,"Tallinna linn",784,"Harju maakond",37,784,24.7436642049,59.424938231
"656",655,325,"LIIMI",24.69389444,59.42083333,"Tallinna linn",784,"Harju maakond",37,784,24.7436642049,59.424938231
"657",656,388,"MMTEE",24.69065833,59.41533056,"Tallinna linn",784,"Harju maakond",37,784,24.7436642049,59.424938231
"658",657,521,"RAAMA",24.73905,59.4304,"Tallinna linn",784,"Harju maakond",37,784,24.7436642049,59.424938231
"659",658,568,"ROOSI",24.74360833,59.43027778,"Tallinna linn",784,"Harju maakond",37,784,24.7436642049,59.424938231
"660",659,84,"ESTEL",24.72831667,59.43943889,"Tallinna linn",784,"Harju maakond",37,784,24.7436642049,59.424938231
"661",660,132,"ILMAR",24.70306667,59.42668333,"Tallinna linn",784,"Harju maakond",37,784,24.7436642049,59.424938231
"662",661,199,"KAUGE",24.71388333,59.43444167,"Tallinna linn",784,"Harju maakond",37,784,24.7436642049,59.424938231
"663",662,353,"MADAR",24.72155,59.43019167,"Tallinna linn",784,"Harju maakond",37,784,24.7436642049,59.424938231
"664",663,548,"RIKS",24.70541389,59.43633889,"Tallinna linn",784,"Harju maakond",37,784,24.7436642049,59.424938231
"665",664,587,"SALME",24.72973889,59.44480556,"Tallinna linn",784,"Harju maakond",37,784,24.7436642049,59.424938231
"666",665,619,"SOSTR",24.70412222,59.42332222,"Tallinna linn",784,"Harju maakond",37,784,24.7436642049,59.424938231
"667",666,31,"ARIKE",24.74361389,59.43444167,"Tallinna linn",784,"Harju maakond",37,784,24.7436642049,59.424938231
"668",667,307,"LAKI",24.679375,59.42165556,"Tallinna linn",784,"Harju maakond",37,784,24.7436642049,59.424938231
"669",668,47,"BAMAN",24.70423056,59.45152222,"Tallinna linn",784,"Harju maakond",37,784,24.7436642049,59.424938231
"670",669,62,"EHTE",24.69981667,59.44450278,"Tallinna linn",784,"Harju maakond",37,784,24.7436642049,59.424938231
"671",670,169,"KAKUM",24.59024167,59.44810556,"Tallinna linn",784,"Harju maakond",37,784,24.7436642049,59.424938231
"672",671,292,"KYBER",24.66084444,59.39795278,"Tallinna linn",784,"Harju maakond",37,784,24.7436642049,59.424938231
"673",672,370,"MASIN",24.7194,59.44600278,"Tallinna linn",784,"Harju maakond",37,784,24.7436642049,59.424938231
"674",673,529,"RAJA",24.66278056,59.39253056,"Tallinna linn",784,"Harju maakond",37,784,24.7436642049,59.424938231
"675",674,558,"RMTEE",24.61041667,59.42989167,"Tallinna linn",784,"Harju maakond",37,784,24.7436642049,59.424938231
"676",675,559,"ROCCA",24.63747778,59.43155278,"Tallinna linn",784,"Harju maakond",37,784,24.7436642049,59.424938231
"677",676,632,"SYSTA",24.66439444,59.45763889,"Tallinna linn",784,"Harju maakond",37,784,24.7436642049,59.424938231
"678",677,669,"THEKA",24.65305833,59.39222778,"Tallinna linn",784,"Harju maakond",37,784,24.7436642049,59.424938231
"679",678,766,"VILMS",24.77446667,59.43824722,"Tallinna linn",784,"Harju maakond",37,784,24.7436642049,59.424938231
"680",679,785,"VOLTA",24.72028056,59.45028056,"Tallinna linn",784,"Harju maakond",37,784,24.7436642049,59.424938231
"681",680,854,"ITKOL",24.66424167,59.39532222,"Tallinna linn",784,"Harju maakond",37,784,24.7436642049,59.424938231
"682",681,861,"HEINA",24.71806389,59.44194444,"Tallinna linn",784,"Harju maakond",37,784,24.7436642049,59.424938231
"683",682,870,"SPRAT",24.60139167,59.44944167,"Tallinna linn",784,"Harju maakond",37,784,24.7436642049,59.424938231
"684",683,871,"STAND",24.71139167,59.44833056,"Tallinna linn",784,"Harju maakond",37,784,24.7436642049,59.424938231
"685",684,6,"AGRO",24.88213333,59.46288333,"Tallinna linn",784,"Harju maakond",37,784,24.7436642049,59.424938231
"686",685,253,"KOMME",24.70999167,59.41416667,"Tallinna linn",784,"Harju maakond",37,784,24.7436642049,59.424938231
"687",686,350,"LVORM",24.86972778,59.45416389,"Tallinna linn",784,"Harju maakond",37,784,24.7436642049,59.424938231
"688",687,477,"PESEM",24.71999167,59.41471667,"Tallinna linn",784,"Harju maakond",37,784,24.7436642049,59.424938231
"689",688,826,"VUTI",24.708,59.41660833,"Tallinna linn",784,"Harju maakond",37,784,24.7436642049,59.424938231
"690",689,879,"ARISO",24.71110833,59.41555556,"Tallinna linn",784,"Harju maakond",37,784,24.7436642049,59.424938231
"691",690,48,"BEKER",24.67285556,59.45208056,"Tallinna linn",784,"Harju maakond",37,784,24.7436642049,59.424938231
"692",691,183,"KARI",24.69068333,59.44611389,"Tallinna linn",784,"Harju maakond",37,784,24.7436642049,59.424938231
"693",692,261,"KOPLI",24.67304444,59.45805278,"Tallinna linn",784,"Harju maakond",37,784,24.7436642049,59.424938231
"694",693,359,"MALEV",24.68805278,59.45546944,"Tallinna linn",784,"Harju maakond",37,784,24.7436642049,59.424938231
"695",694,613,"SOLE",24.69889444,59.44944167,"Tallinna linn",784,"Harju maakond",37,784,24.7436642049,59.424938231
"696",695,902,"PELGU",24.68332778,59.45110556,"Tallinna linn",784,"Harju maakond",37,784,24.7436642049,59.424938231
"697",696,271,"KPOEG",24.82916667,59.43721667,"Tallinna linn",784,"Harju maakond",37,784,24.7436642049,59.424938231
"698",697,515,"PUSEL",24.84071389,59.43516667,"Tallinna linn",784,"Harju maakond",37,784,24.7436642049,59.424938231
"699",698,45,"BALPA",24.84878056,59.41885556,"Tallinna linn",784,"Harju maakond",37,784,24.7436642049,59.424938231
"700",699,885,"ELQOT",24.83305833,59.43055833,"Tallinna linn",784,"Harju maakond",37,784,24.7436642049,59.424938231
"701",700,88,"FANAL",24.61111389,59.39389167,"Tallinna linn",784,"Harju maakond",37,784,24.7436642049,59.424938231
"702",701,258,"KOORT",24.83004167,59.44133056,"Tallinna linn",784,"Harju maakond",37,784,24.7436642049,59.424938231
"703",702,385,"MKASE",24.81834444,59.45714167,"Tallinna linn",784,"Harju maakond",37,784,24.7436642049,59.424938231
"704",703,440,"PAASI",24.84805833,59.44861389,"Tallinna linn",784,"Harju maakond",37,784,24.7436642049,59.424938231
"705",704,473,"PAVIL",24.80805556,59.44999444,"Tallinna linn",784,"Harju maakond",37,784,24.7436642049,59.424938231
"706",705,492,"PKOSE",24.84888333,59.45494444,"Tallinna linn",784,"Harju maakond",37,784,24.7436642049,59.424938231
"707",706,779,"VMOLD",24.615275,59.36194167,"Tallinna linn",784,"Harju maakond",37,784,24.7436642049,59.424938231
"708",707,860,"FILMI",24.78083056,59.44083056,"Tallinna linn",784,"Harju maakond",37,784,24.7436642049,59.424938231
"709",708,898,"MELIK",24.83443889,59.45028056,"Tallinna linn",784,"Harju maakond",37,784,24.7436642049,59.424938231
"710",709,78,"EOK",24.79966389,59.44546667,"Tallinna linn",784,"Harju maakond",37,784,24.7436642049,59.424938231
"711",710,164,"KADRI",24.78375556,59.43738333,"Tallinna linn",784,"Harju maakond",37,784,24.7436642049,59.424938231
"712",711,279,"KUMU",24.79666667,59.43638056,"Tallinna linn",784,"Harju maakond",37,784,24.7436642049,59.424938231
"713",712,896,"LIIOJ",24.78472778,59.44138333,"Tallinna linn",784,"Harju maakond",37,784,24.7436642049,59.424938231
"714",713,602,"SIILI",24.70415556,59.40944167,"Tallinna linn",784,"Harju maakond",37,784,24.7436642049,59.424938231
"715",714,673,"TMAJA",24.75913056,59.4365,"Tallinna linn",784,"Harju maakond",37,784,24.7436642049,59.424938231
"716",715,707,"TYVE",24.71415556,59.40693889,"Tallinna linn",784,"Harju maakond",37,784,24.7436642049,59.424938231
"717",716,124,"HRX",24.741225,59.44863056,"Tallinna linn",784,"Harju maakond",37,784,24.7436642049,59.424938231
"718",717,191,"KASAD",24.74888333,59.44499167,"Tallinna linn",784,"Harju maakond",37,784,24.7436642049,59.424938231
"719",718,242,"KODE",24.74869444,59.44208056,"Tallinna linn",784,"Harju maakond",37,784,24.7436642049,59.424938231
"720",719,557,"RMETS",24.73275556,59.38821667,"Tallinna linn",784,"Harju maakond",37,784,24.7436642049,59.424938231
"721",720,631,"SUVA",24.74026944,59.44278056,"Tallinna linn",784,"Harju maakond",37,784,24.7436642049,59.424938231
"722",721,943,"DELPL",24.730562,59.402496,"Tallinna linn",784,"Harju maakond",37,784,24.7436642049,59.424938231
"723",722,949,"JAHUT",24.74416667,59.44527778,"Tallinna linn",784,"Harju maakond",37,784,24.7436642049,59.424938231
"724",723,59,"EEKAD",24.67178056,59.41541667,"Tallinna linn",784,"Harju maakond",37,784,24.7436642049,59.424938231
"725",724,104,"HABER",24.64443056,59.41916667,"Tallinna linn",784,"Harju maakond",37,784,24.7436642049,59.424938231
"726",725,114,"HARKU",24.63778056,59.41194167,"Tallinna linn",784,"Harju maakond",37,784,24.7436642049,59.424938231
"727",726,426,"OISMA",24.65645556,59.41347778,"Tallinna linn",784,"Harju maakond",37,784,24.7436642049,59.424938231
"728",727,600,"SHALL",24.64749167,59.42554722,"Tallinna linn",784,"Harju maakond",37,784,24.7436642049,59.424938231
"729",728,782,"VOIDU",24.71165833,59.37499167,"Tallinna linn",784,"Harju maakond",37,784,24.7436642049,59.424938231
"730",729,987,"TEEEH",24.65277778,59.41777778,"Tallinna linn",784,"Harju maakond",37,784,24.7436642049,59.424938231
"731",730,109,"HANSA",24.74583333,59.42721944,"Tallinna linn",784,"Harju maakond",37,784,24.7436642049,59.424938231
"732",731,343,"LUHA",24.73860833,59.42554444,"Tallinna linn",784,"Harju maakond",37,784,24.7436642049,59.424938231
"733",732,374,"MERAK",24.85905556,59.44715,"Tallinna linn",784,"Harju maakond",37,784,24.7436642049,59.424938231
"734",733,377,"METRO",24.75513056,59.43971667,"Tallinna linn",784,"Harju maakond",37,784,24.7436642049,59.424938231
"735",734,479,"PETER",24.85,59.43027222,"Tallinna linn",784,"Harju maakond",37,784,24.7436642049,59.424938231
"736",735,502,"POSTI",24.75610833,59.43776944,"Tallinna linn",784,"Harju maakond",37,784,24.7436642049,59.424938231
"737",736,505,"PRINT",24.74574722,59.42553333,"Tallinna linn",784,"Harju maakond",37,784,24.7436642049,59.424938231
"738",737,617,"SOPRU",24.68560833,59.39880556,"Tallinna linn",784,"Harju maakond",37,784,24.7436642049,59.424938231
"739",738,688,"TOSEL",24.71470556,59.40361667,"Tallinna linn",784,"Harju maakond",37,784,24.7436642049,59.424938231
"740",739,709,"UJULA",24.75111389,59.43971944,"Tallinna linn",784,"Harju maakond",37,784,24.7436642049,59.424938231
"741",740,760,"VIKER",24.84556389,59.43888889,"Tallinna linn",784,"Harju maakond",37,784,24.7436642049,59.424938231
"742",741,761,"VIKES",24.75586389,59.43608333,"Tallinna linn",784,"Harju maakond",37,784,24.7436642049,59.424938231
"743",742,794,"WWPAS",24.75058056,59.43719167,"Tallinna linn",784,"Harju maakond",37,784,24.7436642049,59.424938231
"744",743,834,"SAMER",24.74027778,59.42777778,"Tallinna linn",784,"Harju maakond",37,784,24.7436642049,59.424938231
"745",744,942,"BYROO",24.86444444,59.43305556,"Tallinna linn",784,"Harju maakond",37,784,24.7436642049,59.424938231
"746",745,958,"MPLAZ",24.75388889,59.4375,"Tallinna linn",784,"Harju maakond",37,784,24.7436642049,59.424938231
"747",746,972,"RAHMI",24.73972222,59.42694444,"Tallinna linn",784,"Harju maakond",37,784,24.7436642049,59.424938231
"748",747,12,"AHTRI",24.75832222,59.43982222,"Tallinna linn",784,"Harju maakond",37,784,24.7436642049,59.424938231
"749",748,51,"CENTR",24.7613,59.43813889,"Tallinna linn",784,"Harju maakond",37,784,24.7436642049,59.424938231
"750",749,76,"ENDLA",24.73126667,59.42897222,"Tallinna linn",784,"Harju maakond",37,784,24.7436642049,59.424938231
"751",750,83,"ESKAB",24.76538056,59.43785278,"Tallinna linn",784,"Harju maakond",37,784,24.7436642049,59.424938231
"752",751,93,"FOREX",24.76262778,59.43754444,"Tallinna linn",784,"Harju maakond",37,784,24.7436642049,59.424938231
"753",752,268,"KOTKA",24.72831944,59.41978333,"Tallinna linn",784,"Harju maakond",37,784,24.7436642049,59.424938231
"754",753,273,"KRIST",24.72360278,59.42721667,"Tallinna linn",784,"Harju maakond",37,784,24.7436642049,59.424938231
"755",754,329,"LILLE",24.72233056,59.41876667,"Tallinna linn",784,"Harju maakond",37,784,24.7436642049,59.424938231
"756",755,433,"OPTIV",24.76400556,59.43769167,"Tallinna linn",784,"Harju maakond",37,784,24.7436642049,59.424938231
"757",756,474,"PEDAK",24.76975278,59.43851667,"Tallinna linn",784,"Harju maakond",37,784,24.7436642049,59.424938231
"758",757,579,"SADAM",24.75953056,59.44340556,"Tallinna linn",784,"Harju maakond",37,784,24.7436642049,59.424938231
"759",758,743,"VASAD",24.77026944,59.44360556,"Tallinna linn",784,"Harju maakond",37,784,24.7436642049,59.424938231
"760",759,830,"TTYL",24.67110556,59.39610556,"Tallinna linn",784,"Harju maakond",37,784,24.7436642049,59.424938231
"761",760,836,"JALKA",24.73261667,59.42193889,"Tallinna linn",784,"Harju maakond",37,784,24.7436642049,59.424938231
"762",761,872,"TIHAS",24.71304722,59.42388333,"Tallinna linn",784,"Harju maakond",37,784,24.7436642049,59.424938231
"763",762,905,"PRIIS",24.88889167,59.45277778,"Tallinna linn",784,"Harju maakond",37,784,24.7436642049,59.424938231
"764",763,939,"ADMIR",24.76166667,59.43888889,"Tallinna linn",784,"Harju maakond",37,784,24.7436642049,59.424938231
"765",764,944,"FORUM",24.75833333,59.43777778,"Tallinna linn",784,"Harju maakond",37,784,24.7436642049,59.424938231
"766",765,992,"TULIK",24.72527778,59.42361111,"Tallinna linn",784,"Harju maakond",37,784,24.7436642049,59.424938231
"767",766,441,"PAASK",24.63104167,59.36184167,"Tallinna linn",784,"Harju maakond",37,784,24.7436642049,59.424938231
"768",767,497,"POLLU",24.6454,59.36781944,"Tallinna linn",784,"Harju maakond",37,784,24.7436642049,59.424938231
"769",768,813,"TUNGL",24.66027778,59.36777778,"Tallinna linn",784,"Harju maakond",37,784,24.7436642049,59.424938231
"770",769,948,"HIIUH",24.67916667,59.37277778,"Tallinna linn",784,"Harju maakond",37,784,24.7436642049,59.424938231
"771",770,73,"EMTO",24.80526944,59.43889167,"Tallinna linn",784,"Harju maakond",37,784,24.7436642049,59.424938231
"772",771,89,"FARMA",24.729775,59.40944444,"Tallinna linn",784,"Harju maakond",37,784,24.7436642049,59.424938231
"773",772,213,"KELLU",24.72860556,59.40416667,"Tallinna linn",784,"Harju maakond",37,784,24.7436642049,59.424938231
"774",773,546,"RGR",24.82289167,59.42914722,"Tallinna linn",784,"Harju maakond",37,784,24.7436642049,59.424938231
"775",774,819,"PAE",24.82093056,59.43552778,"Tallinna linn",784,"Harju maakond",37,784,24.7436642049,59.424938231
"776",775,961,"NORCO",24.7325,59.40666667,"Tallinna linn",784,"Harju maakond",37,784,24.7436642049,59.424938231
"777",776,20,"ALMAR",24.66432778,59.42784444,"Tallinna linn",784,"Harju maakond",37,784,24.7436642049,59.424938231
"778",777,536,"RAMKO",24.65026389,59.43119167,"Tallinna linn",784,"Harju maakond",37,784,24.7436642049,59.424938231
"779",778,556,"RMARE",24.65198333,59.42636389,"Tallinna linn",784,"Harju maakond",37,784,24.7436642049,59.424938231
"780",779,749,"VEEPJ",24.77518333,59.41933056,"Tallinna linn",784,"Harju maakond",37,784,24.7436642049,59.424938231
"781",780,865,"LOOMA",24.65861389,59.42277778,"Tallinna linn",784,"Harju maakond",37,784,24.7436642049,59.424938231
"782",781,941,"AUDIT",24.65583333,59.42694444,"Tallinna linn",784,"Harju maakond",37,784,24.7436642049,59.424938231
"783",782,328,"LIIVA",24.76110556,59.43027222,"Tallinna linn",784,"Harju maakond",37,784,24.7436642049,59.424938231
"784",783,387,"MMAJA",24.75943333,59.43194167,"Tallinna linn",784,"Harju maakond",37,784,24.7436642049,59.424938231
"785",784,430,"OLYMP",24.75776944,59.42999444,"Tallinna linn",784,"Harju maakond",37,784,24.7436642049,59.424938231
"786",785,621,"SRV",24.76008333,59.43260556,"Tallinna linn",784,"Harju maakond",37,784,24.7436642049,59.424938231
"787",786,623,"STOCK",24.762075,59.43258611,"Tallinna linn",784,"Harju maakond",37,784,24.7436642049,59.424938231
"788",787,962,"NORDE",24.76027778,59.43138889,"Tallinna linn",784,"Harju maakond",37,784,24.7436642049,59.424938231
"789",788,87,"FAHLE",24.78027222,59.42471944,"Tallinna linn",784,"Harju maakond",37,784,24.7436642049,59.424938231
"790",789,195,"KATUS",24.78409444,59.42855833,"Tallinna linn",784,"Harju maakond",37,784,24.7436642049,59.424938231
"791",790,332,"LIVIK",24.77832778,59.42666389,"Tallinna linn",784,"Harju maakond",37,784,24.7436642049,59.424938231
"792",791,364,"MARAT",24.77313889,59.43005833,"Tallinna linn",784,"Harju maakond",37,784,24.7436642049,59.424938231
"793",792,409,"MYYRI",24.7481,59.43562778,"Tallinna linn",784,"Harju maakond",37,784,24.7436642049,59.424938231
"794",793,544,"RAVAL",24.75393056,59.43469444,"Tallinna linn",784,"Harju maakond",37,784,24.7436642049,59.424938231
"795",794,686,"TORUS",24.78084444,59.432,"Tallinna linn",784,"Harju maakond",37,784,24.7436642049,59.424938231
"796",795,798,"YLARI",24.79194167,59.42416667,"Tallinna linn",784,"Harju maakond",37,784,24.7436642049,59.424938231
"797",796,1010,"RKASL",24.78166667,59.4275,"Tallinna linn",784,"Harju maakond",37,784,24.7436642049,59.424938231
"798",797,49,"BLRT",24.66111667,59.46305556,"Tallinna linn",784,"Harju maakond",37,784,24.7436642049,59.424938231
"799",798,234,"KIVIL",24.87416667,59.44721944,"Tallinna linn",784,"Harju maakond",37,784,24.7436642049,59.424938231
"800",799,44,"BALBI",24.74776667,59.37305278,"Tallinna linn",784,"Harju maakond",37,784,24.7436642049,59.424938231
"801",800,179,"KARBE",24.88741667,59.44546944,"Tallinna linn",784,"Harju maakond",37,784,24.7436642049,59.424938231
"802",801,362,"MANNI",24.72806389,59.37305556,"Tallinna linn",784,"Harju maakond",37,784,24.7436642049,59.424938231
"803",802,417,"NISSA",24.87331667,59.43666667,"Tallinna linn",784,"Harju maakond",37,784,24.7436642049,59.424938231
"804",803,458,"PANEL",24.86694444,59.42804722,"Tallinna linn",784,"Harju maakond",37,784,24.7436642049,59.424938231
"805",804,543,"RAUDA",24.76444167,59.36280278,"Tallinna linn",784,"Harju maakond",37,784,24.7436642049,59.424938231
"806",805,1009,"RDALU",24.75638889,59.37,"Tallinna linn",784,"Harju maakond",37,784,24.7436642049,59.424938231
"807",806,1012,"RAADI",24.88444444,59.44,"Tallinna linn",784,"Harju maakond",37,784,24.7436642049,59.424938231
"808",807,117,"HIIU",24.67925278,59.37288333,"Tallinna linn",784,"Harju maakond",37,784,24.7436642049,59.424938231
"809",808,235,"KIVIM",24.65639167,59.38054722,"Tallinna linn",784,"Harju maakond",37,784,24.7436642049,59.424938231
"810",809,401,"MUSKO",24.66193333,59.37250556,"Tallinna linn",784,"Harju maakond",37,784,24.7436642049,59.424938231
"811",810,629,"SUUSA",24.66989167,59.38813056,"Tallinna linn",784,"Harju maakond",37,784,24.7436642049,59.424938231
"812",811,718,"VABAK",24.70055278,59.38055556,"Tallinna linn",784,"Harju maakond",37,784,24.7436642049,59.424938231
"813",812,723,"VALDE",24.69221389,59.38416389,"Tallinna linn",784,"Harju maakond",37,784,24.7436642049,59.424938231
"814",813,960,"NOMKI",24.68305556,59.38805556,"Tallinna linn",784,"Harju maakond",37,784,24.7436642049,59.424938231
"815",814,977,"SERVA",24.68972222,59.37277778,"Tallinna linn",784,"Harju maakond",37,784,24.7436642049,59.424938231
"816",815,1007,"NKASE",24.68333333,59.38055556,"Tallinna linn",784,"Harju maakond",37,784,24.7436642049,59.424938231
"817",816,55,"DVIGA",24.81474444,59.42225833,"Tallinna linn",784,"Harju maakond",37,784,24.7436642049,59.424938231
"818",817,81,"EPOST",24.79314167,59.43023889,"Tallinna linn",784,"Harju maakond",37,784,24.7436642049,59.424938231
"819",818,91,"FERME",24.80305278,59.44638056,"Tallinna linn",784,"Harju maakond",37,784,24.7436642049,59.424938231
"820",819,99,"GLASK",24.80896944,59.42747778,"Tallinna linn",784,"Harju maakond",37,784,24.7436642049,59.424938231
"821",820,335,"LLAVA",24.80689167,59.44406667,"Tallinna linn",784,"Harju maakond",37,784,24.7436642049,59.424938231
"822",821,436,"OSTEN",24.73832222,59.41388889,"Tallinna linn",784,"Harju maakond",37,784,24.7436642049,59.424938231
"823",822,508,"PSILD",24.79832778,59.435,"Tallinna linn",784,"Harju maakond",37,784,24.7436642049,59.424938231
"824",823,875,"VALGE",24.81333333,59.44360833,"Tallinna linn",784,"Harju maakond",37,784,24.7436642049,59.424938231
"825",824,964,"PAALA",24.81222222,59.4325,"Tallinna linn",784,"Harju maakond",37,784,24.7436642049,59.424938231
"826",825,967,"PITEE",24.80666667,59.44916667,"Tallinna linn",784,"Harju maakond",37,784,24.7436642049,59.424938231
"827",826,1024,"VPAAL",24.80805556,59.42722222,"Tallinna linn",784,"Harju maakond",37,784,24.7436642049,59.424938231
"828",827,82,"ERIC",24.73471667,59.40330278,"Tallinna linn",784,"Harju maakond",37,784,24.7436642049,59.424938231
"829",828,371,"MEDIC",24.73388889,59.40666667,"Tallinna linn",784,"Harju maakond",37,784,24.7436642049,59.424938231
"830",829,482,"PIIKO",24.73400556,59.40464444,"Tallinna linn",784,"Harju maakond",37,784,24.7436642049,59.424938231
"831",830,678,"TONDI",24.73610556,59.40999167,"Tallinna linn",784,"Harju maakond",37,784,24.7436642049,59.424938231
"832",831,998,"VRENN",24.75666667,59.41305556,"Tallinna linn",784,"Harju maakond",37,784,24.7436642049,59.424938231
"833",832,1018,"KITSE",24.74255278,59.41153889,"Tallinna linn",784,"Harju maakond",37,784,24.7436642049,59.424938231
"834",833,270,"KPLAZ",24.74610556,59.43233333,"Tallinna linn",784,"Harju maakond",37,784,24.7436642049,59.424938231
"835",834,862,"HKOHT",24.74805556,59.43444167,"Tallinna linn",784,"Harju maakond",37,784,24.7436642049,59.424938231
"836",835,216,"KERGE",24.75613056,59.43241389,"Tallinna linn",784,"Harju maakond",37,784,24.7436642049,59.424938231
"837",836,240,"KMEHE",24.75360278,59.43027222,"Tallinna linn",784,"Harju maakond",37,784,24.7436642049,59.424938231
"838",837,399,"MUSAK",24.74791667,59.43141667,"Tallinna linn",784,"Harju maakond",37,784,24.7436642049,59.424938231
"839",838,1008,"SOLAR",24.75194444,59.43361111,"Tallinna linn",784,"Harju maakond",37,784,24.7436642049,59.424938231
"840",839,1031,"NOTEA",24.74993333,59.4323,"Tallinna linn",784,"Harju maakond",37,784,24.7436642049,59.424938231
"841",840,32,"ARIMA",24.74136944,59.41714444,"Tallinna linn",784,"Harju maakond",37,784,24.7436642049,59.424938231
"842",841,92,"FILTR",24.767675,59.42290278,"Tallinna linn",784,"Harju maakond",37,784,24.7436642049,59.424938231
"843",842,158,"KAARE",24.76119444,59.41765278,"Tallinna linn",784,"Harju maakond",37,784,24.7436642049,59.424938231
"844",843,172,"KALEV",24.76138333,59.42692222,"Tallinna linn",784,"Harju maakond",37,784,24.7436642049,59.424938231
"845",844,356,"MAGAS",24.753175,59.42442222,"Tallinna linn",784,"Harju maakond",37,784,24.7436642049,59.424938231
"846",845,367,"MARLE",24.74470833,59.42416667,"Tallinna linn",784,"Harju maakond",37,784,24.7436642049,59.424938231
"847",846,403,"MUSTA",24.70011667,59.40142222,"Tallinna linn",784,"Harju maakond",37,784,24.7436642049,59.424938231
"848",847,551,"RIME",24.69136667,59.40585556,"Tallinna linn",784,"Harju maakond",37,784,24.7436642049,59.424938231
"849",848,577,"SAASE",24.68819167,59.40983056,"Tallinna linn",784,"Harju maakond",37,784,24.7436642049,59.424938231
"850",849,762,"VILDE",24.68833056,59.40360833,"Tallinna linn",784,"Harju maakond",37,784,24.7436642049,59.424938231
"851",850,797,"YITEH",24.740275,59.41860556,"Tallinna linn",784,"Harju maakond",37,784,24.7436642049,59.424938231
"852",851,909,"SIPEL",24.69804722,59.40694444,"Tallinna linn",784,"Harju maakond",37,784,24.7436642049,59.424938231
"853",852,978,"SINIM",24.90083333,59.44527778,"Tallinna linn",784,"Harju maakond",37,784,24.7436642049,59.424938231
"854",853,1044,"VANGL",24.7566,59.42164722,"Tallinna linn",784,"Harju maakond",37,784,24.7436642049,59.424938231
"855",854,13,"AIRPO",24.79862222,59.41610833,"Tallinna linn",784,"Harju maakond",37,784,24.7436642049,59.424938231
"856",855,70,"EMI",24.69777778,59.39638056,"Tallinna linn",784,"Harju maakond",37,784,24.7436642049,59.424938231
"857",856,125,"HUMAN",24.79908056,59.42287778,"Tallinna linn",784,"Harju maakond",37,784,24.7436642049,59.424938231
"858",857,143,"JARVE",24.71944722,59.39816667,"Tallinna linn",784,"Harju maakond",37,784,24.7436642049,59.424938231
"859",858,144,"JASEL",24.72034722,59.39245833,"Tallinna linn",784,"Harju maakond",37,784,24.7436642049,59.424938231
"860",859,318,"LENNU",24.80277778,59.41749444,"Tallinna linn",784,"Harju maakond",37,784,24.7436642049,59.424938231
"861",860,475,"PERHM",24.70110556,59.39916389,"Tallinna linn",784,"Harju maakond",37,784,24.7436642049,59.424938231
"862",861,528,"RAHUM",24.70035278,59.38795556,"Tallinna linn",784,"Harju maakond",37,784,24.7436642049,59.424938231
"863",862,622,"SSOJA",24.80216667,59.42077222,"Tallinna linn",784,"Harju maakond",37,784,24.7436642049,59.424938231
"864",863,799,"YLEM",24.79361667,59.42110556,"Tallinna linn",784,"Harju maakond",37,784,24.7436642049,59.424938231
"865",864,878,"YLOTS",24.80138889,59.42249722,"Tallinna linn",784,"Harju maakond",37,784,24.7436642049,59.424938231
"866",865,986,"TARIM",24.71333333,59.40166667,"Tallinna linn",784,"Harju maakond",37,784,24.7436642049,59.424938231
"867",866,1027,"EKEIM",24.705,59.39527778,"Tallinna linn",784,"Harju maakond",37,784,24.7436642049,59.424938231
"868",867,1049,"AGURI",24.79972222,59.42055556,"Tallinna linn",784,"Harju maakond",37,784,24.7436642049,59.424938231
"869",868,233,"KIVI",26.98304167,59.35443889,"Kiviõli linn",309,"Ida-Viru maakond",44,309,26.9654423555,59.3545157863
"870",869,1042,"KIOLI",26.94027778,59.35361111,"Kiviõli linn",309,"Ida-Viru maakond",44,309,26.9654423555,59.3545157863
"871",870,405,"MUUGA",24.9686,59.48111389,"Maardu linn",446,"Harju maakond",37,446,24.9736738173,59.4652601869
"872",871,204,"KEEMI",25.01610833,59.48304167,"Maardu linn",446,"Harju maakond",37,446,24.9736738173,59.4652601869
"873",872,365,"MARDU",25.01102778,59.47711389,"Maardu linn",446,"Harju maakond",37,446,24.9736738173,59.4652601869
"874",873,96,"FOSFO",24.99632778,59.45644167,"Maardu linn",446,"Harju maakond",37,446,24.9736738173,59.4652601869
"875",874,136,"IRU",24.94581944,59.45583056,"Maardu linn",446,"Harju maakond",37,446,24.9736738173,59.4652601869
"876",875,137,"IRUKO",24.92666667,59.45166667,"Maardu linn",446,"Harju maakond",37,446,24.9736738173,59.4652601869
"877",876,847,"KARMU",24.96221667,59.45305556,"Maardu linn",446,"Harju maakond",37,446,24.9736738173,59.4652601869
"878",877,994,"VALEE",26.04527778,57.79277778,"Valga linn",854,"Valga maakond",82,854,26.0708032449,57.7784600776
"879",878,724,"VALGA",26.07748889,57.76639167,"Valga linn",854,"Valga maakond",82,854,26.0708032449,57.7784600776
"880",879,726,"VALIH",26.05305556,57.78500556,"Valga linn",854,"Valga maakond",82,854,26.0708032449,57.7784600776
"881",880,730,"VALVT",26.03943056,57.77376944,"Valga linn",854,"Valga maakond",82,854,26.0708032449,57.7784600776
"882",881,851,"VALRA",26.05403056,57.77500278,"Valga linn",854,"Valga maakond",82,854,26.0708032449,57.7784600776
"883",882,995,"VALGM",26.0775,57.76638889,"Valga linn",854,"Valga maakond",82,854,26.0708032449,57.7784600776
"884",883,408,"MUVEE",26.94416389,58.82971944,"Mustvee linn",485,"Jõgeva maakond",49,485,26.9365288712,58.8479989746
"885",884,414,"NARVA",28.19166667,59.38083611,"Narva linn",511,"Ida-Viru maakond",44,511,28.1088919858,59.3541913804
"886",885,272,"KREEN",28.19267222,59.35916389,"Narva linn",511,"Ida-Viru maakond",44,511,28.1088919858,59.3541913804
"887",886,411,"NARKE",28.17887778,59.37860556,"Narva linn",511,"Ida-Viru maakond",44,511,28.1088919858,59.3541913804
"888",887,412,"NARRJ",28.19583056,59.37027778,"Narva linn",511,"Ida-Viru maakond",44,511,28.1088919858,59.3541913804
"889",888,46,"BALSJ",28.11860556,59.35278056,"Narva linn",511,"Ida-Viru maakond",44,511,28.1088919858,59.3541913804
"890",889,413,"NARTA",28.17026389,59.38111389,"Narva linn",511,"Ida-Viru maakond",44,511,28.1088919858,59.3541913804
"891",890,838,"UUSKY",28.17473056,59.36916389,"Narva linn",511,"Ida-Viru maakond",44,511,28.1088919858,59.3541913804
"892",891,959,"NARAH",28.1625,59.38388889,"Narva linn",511,"Ida-Viru maakond",44,511,28.1088919858,59.3541913804
"893",892,829,"NRAHU",28.17611667,59.39250556,"Narva linn",511,"Ida-Viru maakond",44,511,28.1088919858,59.3541913804
"894",893,1019,"KUDRU",28.05416389,59.42722222,"Narva linn",511,"Ida-Viru maakond",44,511,28.1088919858,59.3541913804
"895",894,496,"POLKE",27.05334167,58.05221944,"Põlva linn",620,"Põlva maakond",65,620,27.0708257642,58.0601566863
"896",895,499,"POLVA",27.09694167,58.06360833,"Põlva linn",620,"Põlva maakond",65,620,27.0708257642,58.0601566863
"897",896,446,"PAIDE",25.56310833,58.88735556,"Paide linn",566,"Järva maakond",51,566,25.5564002624,58.8849740965
"898",897,449,"PAITF",25.55529167,58.88666389,"Paide linn",566,"Järva maakond",51,566,25.5564002624,58.8849740965
"899",898,900,"PAIEE",25.52945,58.877775,"Paide linn",566,"Järva maakond",51,566,25.5564002624,58.8849740965
"900",899,287,"KURTF",22.48588611,58.25466389,"Kuressaare linn",349,"Saare maakond",74,349,22.4901813122,58.2484865923
"901",900,284,"KURES",22.4925,58.267775,"Kuressaare linn",349,"Saare maakond",74,349,22.4901813122,58.2484865923
"902",901,286,"KURSA",22.47249444,58.2475,"Kuressaare linn",349,"Saare maakond",74,349,22.4901813122,58.2484865923
"903",902,828,"SIION",22.49722778,58.25805278,"Kuressaare linn",349,"Saare maakond",74,349,22.4901813122,58.2484865923
"904",903,849,"KURGY",22.49916667,58.24833056,"Kuressaare linn",349,"Saare maakond",74,349,22.4901813122,58.2484865923
"905",904,14,"AKADE",26.72083056,58.37582778,"Tartu linn",795,"Tartu maakond",78,795,26.728427209,58.3701665188
"906",905,193,"KASTA",26.71500556,58.37083056,"Tartu linn",795,"Tartu maakond",78,795,26.728427209,58.3701665188
"907",906,432,"OPETA",26.71665833,58.375,"Tartu linn",795,"Tartu maakond",78,795,26.728427209,58.3701665188
"908",907,661,"TARYL",26.72055556,58.38138889,"Tartu linn",795,"Tartu maakond",78,795,26.728427209,58.3701665188
"909",908,795,"YHIKA",26.72750556,58.38360278,"Tartu linn",795,"Tartu maakond",78,795,26.728427209,58.3701665188
"910",909,823,"JANES",26.73360556,58.39166667,"Tartu linn",795,"Tartu maakond",78,795,26.728427209,58.3701665188
"911",910,656,"TAROP",26.72380556,58.35857222,"Tartu linn",795,"Tartu maakond",78,795,26.728427209,58.3701665188
"912",911,495,"POLAR",26.725,58.37776667,"Tartu linn",795,"Tartu maakond",78,795,26.728427209,58.3701665188
"913",912,512,"PUMBA",26.74221667,58.34249167,"Tartu linn",795,"Tartu maakond",78,795,26.728427209,58.3701665188
"914",913,570,"ROPKA",26.72808889,58.34499444,"Tartu linn",795,"Tartu maakond",78,795,26.728427209,58.3701665188
"915",914,608,"SINIK",26.70861111,58.35083056,"Tartu linn",795,"Tartu maakond",78,795,26.728427209,58.3701665188
"916",915,657,"TARRO",26.73111111,58.355,"Tartu linn",795,"Tartu maakond",78,795,26.728427209,58.3701665188
"917",916,95,"FORTU",26.73054722,58.38027222,"Tartu linn",795,"Tartu maakond",78,795,26.728427209,58.3701665188
"918",917,633,"ZEPEL",26.73685556,58.37538333,"Tartu linn",795,"Tartu maakond",78,795,26.728427209,58.3701665188
"919",918,910,"SOOLA",26.73054722,58.37805556,"Tartu linn",795,"Tartu maakond",78,795,26.728427209,58.3701665188
"920",919,916,"TIGUT",26.73581944,58.37656111,"Tartu linn",795,"Tartu maakond",78,795,26.728427209,58.3701665188
"921",920,25,"ANNE",26.77471667,58.37305833,"Tartu linn",795,"Tartu maakond",78,795,26.728427209,58.3701665188
"922",921,171,"KALDA",26.75999167,58.37416667,"Tartu linn",795,"Tartu maakond",78,795,26.728427209,58.3701665188
"923",922,690,"TSANG",26.75443333,58.37966389,"Tartu linn",795,"Tartu maakond",78,795,26.728427209,58.3701665188
"924",923,984,"TANNE",26.76416667,58.37833333,"Tartu linn",795,"Tartu maakond",78,795,26.728427209,58.3701665188
"925",924,983,"TAHET",26.73,58.36694444,"Tartu linn",795,"Tartu maakond",78,795,26.728427209,58.3701665188
"926",925,97,"FYYSI",26.72721389,58.37276944,"Tartu linn",795,"Tartu maakond",78,795,26.728427209,58.3701665188
"927",926,342,"LOUNA",26.67693889,58.35694167,"Tartu linn",795,"Tartu maakond",78,795,26.728427209,58.3701665188
"928",927,612,"SOBRA",26.71944722,58.36526944,"Tartu linn",795,"Tartu maakond",78,795,26.728427209,58.3701665188
"929",928,703,"TVESK",26.70526667,58.37055278,"Tartu linn",795,"Tartu maakond",78,795,26.728427209,58.3701665188
"930",929,970,"PUUSE",26.7,58.37,"Tartu linn",795,"Tartu maakond",78,795,26.728427209,58.3701665188
"931",930,565,"RONDA",26.68693056,58.35999167,"Tartu linn",795,"Tartu maakond",78,795,26.728427209,58.3701665188
"932",931,655,"TARMA",26.70165556,58.36221667,"Tartu linn",795,"Tartu maakond",78,795,26.728427209,58.3701665188
"933",932,699,"TULBI",26.69526389,58.37055556,"Tartu linn",795,"Tartu maakond",78,795,26.728427209,58.3701665188
"934",933,953,"KEHOO",26.68861111,58.36916667,"Tartu linn",795,"Tartu maakond",78,795,26.728427209,58.3701665188
"935",934,996,"VEERI",26.69222222,58.375,"Tartu linn",795,"Tartu maakond",78,795,26.728427209,58.3701665188
"936",935,641,"TAMAJ",26.68555556,58.38249444,"Tartu linn",795,"Tartu maakond",78,795,26.728427209,58.3701665188
"937",936,80,"EPAY",26.69500556,58.38750278,"Tartu linn",795,"Tartu maakond",78,795,26.728427209,58.3701665188
"938",937,153,"JUURA",26.70501667,58.37796944,"Tartu linn",795,"Tartu maakond",78,795,26.728427209,58.3701665188
"939",938,650,"TANAI",26.69172222,58.3898,"Tartu linn",795,"Tartu maakond",78,795,26.728427209,58.3701665188
"940",939,654,"TARKO",26.72026667,58.3925,"Tartu linn",795,"Tartu maakond",78,795,26.728427209,58.3701665188
"941",940,658,"TARTF",26.72055556,58.38361667,"Tartu linn",795,"Tartu maakond",78,795,26.728427209,58.3701665188
"942",941,704,"TYMI",26.71443333,58.37832778,"Tartu linn",795,"Tartu maakond",78,795,26.728427209,58.3701665188
"943",942,1016,"ALCOQ",26.70527778,58.38611111,"Tartu linn",795,"Tartu maakond",78,795,26.728427209,58.3701665188
"944",943,1017,"SALVE",26.71027778,58.40194444,"Tartu linn",795,"Tartu maakond",78,795,26.728427209,58.3701665188
"945",944,23,"ANKES",26.76750278,58.36832778,"Tartu linn",795,"Tartu maakond",78,795,26.728427209,58.3701665188
"946",945,57,"EEDEN",26.75003056,58.37325833,"Tartu linn",795,"Tartu maakond",78,795,26.728427209,58.3701665188
"947",946,66,"EKAUB",26.73253056,58.36043889,"Tartu linn",795,"Tartu maakond",78,795,26.728427209,58.3701665188
"948",947,129,"IHAST",26.78361667,58.35388889,"Tartu linn",795,"Tartu maakond",78,795,26.728427209,58.3701665188
"949",948,660,"TARU",26.73888056,58.36777778,"Tartu linn",795,"Tartu maakond",78,795,26.728427209,58.3701665188
"950",949,837,"IHARL",26.77110833,58.34305556,"Tartu linn",795,"Tartu maakond",78,795,26.728427209,58.3701665188
"951",950,913,"TAUF",26.73333333,58.35221667,"Tartu linn",795,"Tartu maakond",78,795,26.728427209,58.3701665188
"952",951,914,"TEGUR",26.73361944,58.35833056,"Tartu linn",795,"Tartu maakond",78,795,26.728427209,58.3701665188
"953",952,1043,"TTARM",26.74583333,58.36388889,"Tartu linn",795,"Tartu maakond",78,795,26.728427209,58.3701665188
